Country,Town,Site Name,Location,Services,Cost,Altitude,Latitude,Longitude,Website URL,Site Type,Comments
Andorra,Canillo,,Countryside,,€0.00,1284,42.572822,1.586612,http://ourbumble.com/llorvorsi-to-villefranche-de-la-chalfort/,Wild,Brilliant parking spot for lunch with stunning views over Canillo and mountain peaks.  Waterfalls just behind.
Andorra,Ordino,,Countryside,Trash,€0.00,1984,42.555923,1.57153,http://ourbumble.com/llorvorsi-to-villefranche-de-la-chalfort/,Mixed Parking,Lay by right at the mountain pass with stunning views on both sides of the road.  
Andorra,Ordino,,Village/Town/City,"Fresh WaterGrey WaterBlack WaterTrashToiletsWi-Fi",€7.00,1288,42.555916,1.53263,http://ourbumble.com/llorvorsi-to-villefranche-de-la-chalfort/,Rest Area & Services,Small car park / aire at the side of ports centre. €0.50 per hour max €7 per day with max 48 hour stay. Motorhome service point.  Free wifi inside library.
Andorra,Arcais,,Countryside,"ToiletsShowers",€0.00,2223,42.631773,1.482459,http://ourbumble.com/llorvorsi-to-villefranche-de-la-chalfort/,Mixed Parking,Car park at the bottom of the sky run. Cafe with great valley views
Andorra,El Serrat,,Countryside,Trash,€0.00,1940,42.63184,1.501141,http://ourbumble.com/llorvorsi-to-villefranche-de-la-chalfort/,Mixed Parking,"Massive car park at the bottom of the sky lift.  Flat, level Tarmac with fine view down the valley with odd few waterfalls thrown in for good measure. "
Andorra,Pas de la Casa,,Countryside,,€0.00,2425,42.540494,1.718001,http://ourbumble.com/llorvorsi-to-villefranche-de-la-chalfort/,Mixed Parking,Loose gravel car park at top of the mountain pass with stunning views down the valley and across the peaks.  No restrictions for Motorhomes or camping.  
Austria,Wacht,,Countryside,"Fresh WaterTrash",€0.00,649,46.797645,12.839411,http://ourbumble.com/lake-jansa-to-lofer/,Wild,Small layby in middle of countryside. 
Austria,Lienz,,Village/Town/City,,€0.00,679,46.832834,12.752268,http://ourbumble.com/lake-jansa-to-lofer/,Mixed Parking,"Free parking very close to centre, toboggan run and castle .  No overnight parking permitted.  The car park does has a manual barrier that we assume is locked overnight."
Austria,Lienz,,Village/Town/City,,€0.00,681,46.827749,12.761863,http://ourbumble.com/lake-jansa-to-lofer/,Mixed Parking,"Car park with no restrictions.  Just off the main road and short stroll to centre.  Flat, level, tarmac surface."
Austria,Dollach,,Village/Town/City,Fresh Water,€0.00,1027,46.96892,12.896224,http://ourbumble.com/lake-jansa-to-lofer/,Wild,Lay by at the side of the main road.  Great views of the valley.  Small waterwheel to the side and supermarket just down the hill.  Ideal spot for pre grossglockner drive. 
Austria,Fusch,,Countryside,Trash,€0.00,1144,47.169152,12.812717,http://ourbumble.com/lake-jansa-to-lofer/,Mixed Parking,Tarmac car park at the entrance to grossglockner pass.  Stunning views and lovely walks
Austria,Kirchbach,,Countryside,"Fresh WaterTrash",€0.00,626,46.645631,13.168672,http://ourbumble.com/trieste-to-lake-jansa/,Mixed Parking & Services,Layby with great views.  Flat tarmac so n need for chocs.  Water tap and rubbish. B111 can be noisy during the day.
Belgium,Bruges,Kampeerautoterain 1,Village/Town/City,"Black WaterFresh WaterGrey WaterTrashElectric",€25.00,-9,51.196076,3.225659,http://ourbumble.com/belgium-waffles/,Rest Area & Services,"Two aires and a coach park located just off the main ring road. Great location for access to Bruges as only 5 minutes walk to centre. The aire is situated on the river with pleasant views over the marina and boats.   Reasonably quite with a little road noise.  Good clean parking bays with electric.  The services could be improved as only one rubbish point for all 3 sites and only one grey water dump located on the smaller of the site."
Belgium,Rijkhoven,Alden Biesen,Village/Town/City,,€0.00,,50.84159,5.51913,http://ourbumble.com/cologne-to-uk/,Mixed Parking,"Car park next to the site, possible camper area to the rear in summer but that is a guess, the area could also be for fates. The site had nice walks around the grounds."
Belgium,Tongeren,,,,€0.00,,50.7869,5.45143,http://ourbumble.com/cologne-to-uk/,Mixed Parking,"Gravel car park, Also Aire facing with services."
Belgium,Yres,,Village/Town/City,,€0.00,17,50.843534,2.896423,http://ourbumble.com/,Mixed Parking,Sports ground car park close to centre. Parking also at the sport centre around the corner.
Belgium,Ypres,,,,€0.00,3,50.843579,2.896372,http://ourbumble.com/,Mixed Parking,
Bulgaria,Sofia,,,"Fresh WaterGrey WaterBlack WaterTrashElectricWi-Fi",€10.00,536,42.743137,23.285587,http://ourbumble.com/bounce-bulgaria-bee-line-greece/,Campsite,Closest site to the centre. Essentially someone's back garden but he is very helpful and polite.
Bulgaria,,,,"Fresh WaterToilets",€0.00,328,41.968451,23.096097,http://ourbumble.com/bounce-bulgaria-bee-line-greece/,Mixed Parking,Service station parking area.
Bulgaria,Barzia,,,Fresh Water,€0.00,534,43.190006,23.158877,http://ourbumble.com/,Mixed Parking,Small parking area.
Denmark,Ribe,,Village/Town/City,"Grey WaterFresh WaterTrash",€0.00,9,55.324526,8.757599,http://ourbumble.com/another-beach-bash/,Mixed Parking,Flat car park that permits overnight parking but no camping. Only 10 minutes walk to city centre. All facilities located on the car park but no electricity.
Denmark,Hulsig,,,"TrashToilets",€0.00,0,57.639689,10.459034,http://ourbumble.com/barefoot-luxury/,Wild,"Layby just of the main road next to the sand dunes, narrow beach behind, mixed surfaces but level. Popular with cyclists. Located a couple of km before the town of Hulsig."
Denmark,Skagen,,Harbour,,€0.00,17,57.716056,10.57867,http://ourbumble.com/barefoot-luxury/,Mixed Parking,"Small car park in in between harbour and centre. Good quiet location and only couple of minutes walk to main attractions. Flat, level surface with no restrictions."
Denmark,Skagen,,,,€0.00,-0,57.715709,10.573479,http://ourbumble.com/barefoot-luxury/,Mixed Parking,"Quiet little car park near some properties and the windmill museum, 2 minutes into town and the harbour area, very quiet with parking for about 10 vehicles."
Denmark,Hojen,,Beach,,€0.00,2,57.719269,10.510115,http://ourbumble.com/barefoot-luxury/,Wild,Small ring road around the sand dunes with permitted parking. No restrictions and no fees. Straight on to the beach.
Denmark,Frederikshevn,,Village/Town/City,"Fresh WaterGrey WaterBlack WaterTrashToilets",€0.00,-56,57.39116,10.511498,http://ourbumble.com/barefoot-luxury/,Wild,Good service area with water. Fuel cheap but check out the price as what is advertised is not what you pay if you use the large fuel station.
Denmark,Flauenskjold,Flauenskjold borgerforening,Countryside,"Fresh WaterGrey WaterBlack WaterTrashToiletsElectric",€7.50,15,57.247592,10.283803,http://ourbumble.com/bluetooth-the-viking/,Campsite,"Very simple and basic campsite in an open field. Quiet and tranquil.The facilities are only average but this is reflected in a very good price of DDK50 or £5."
Denmark,Tonder,,Village/Town/City,Trash,€0.00,-7,54.930858,8.864219,http://ourbumble.com/off-for-a-bacon-butty/,Mixed Parking,"Car park located behind the old water tower/museum. Flat, clean tarmac surface, very quite at night and 500m to the town centre."
Denmark,Jellings,Viking Centre,Village/Town/City,"ToiletsTrash",€0.00,97,55.756159,9.416225,http://ourbumble.com/pigs-do-fly/,Mixed Parking,"Flat, level car park located next to the Viking centre. Free with no overnight restrictions. Toilet facilities but no camper services."
Denmark,Viborg,,Village/Town/City,Toilets,€0.00,17,56.419774,9.406366,http://ourbumble.com/pigs-do-fly/,Mixed Parking,Good little pull in spot for lunch or overnight spot. Basic facilities and nice picnic area. Located just of the main road.
Denmark,Suldrup,Himmerland,Village/Town/City,"Fresh WaterGrey WaterBlack WaterTrashToilets",€0.00,71,56.841781,9.743502,http://ourbumble.com/pigs-do-fly/,Mixed Parking & Services,Fuel station with free motorhome services. Fuel expensive but a place to stay overnight in needed.
Denmark,Saeby,Marina,Harbour,"TrashToilets",€13.00,-25,57.332066,10.532256,http://ourbumble.com/probably-the-best-palm-trees-in-denmark/,Mixed Parking,Overnight parking on the marina. Free during the day but DKK150 for overnight 10 until 7
Denmark,Frederkshavn,,Harbour,,€0.00,4,57.448619,10.550949,http://ourbumble.com/probably-the-best-palm-trees-in-denmark/,Wild,Loose stone chip ground but solid base underneath. Located Behind industrial section but tiny slip road takes you  straight on to beach. Quiet with no passing traffic.
Denmark,Frederkshavn,,Beach,Trash,€0.00,16,57.459521,10.539077,http://ourbumble.com/probably-the-best-palm-trees-in-denmark/,Mixed Parking,Car park with no restrictions and located straight on the beach. Hard surface with loose gravel
Denmark,Ostergy,Oasen,Countryside,"Fresh WaterGrey WaterTrashToiletsElectricWi-FiShowersBlack Water",€15.00,3,55.094321,8.540914,http://ourbumble.com/roaming-on-romo/,Rest Area & Services,"Excellent camperplads with spacious plots located round a small lake. Each plot has gravel parking with mown lawn area. Individual electricity posts which cost approx €1 for 12 hours. Peaceful and tranquil. Main information point has lots of leaflets about places to visit and Hannah and Carl the owners are very welcoming.  Shower and toilet facilities very clean. Washing machine and dryer located within shower block entrance. Massive warm TV room where people gather in the evening to share stories over a beer or two.As at May 2016 they were creating another camperplads just around the corner which houses 75 more spaces. 004573755200"
Denmark,Mogeltonder,,Village/Town/City,"ToiletsTrash",€0.00,10,54.941158,8.807908,http://ourbumble.com/village-fit-for-king/,Mixed Parking,Level gravel car park at the side of the church.  Clean with access to toilet facilities including fresh water
Estonia,Käsmu,,Countryside,,€0.00,28,59.61038,25.916426,http://ourbumble.com/captains-village-lahemaa-national-park/,Mixed Parking,Parking for walking trail. No restrictions
Estonia,Kasmu,,Village/Town/City,,€0.00,8,59.604403,25.92083,http://ourbumble.com/captains-village-lahemaa-national-park/,Mixed Parking,Grassy area behind the sailing club
Estonia,Kasmu,,Village/Town/City,,€0.00,5,59.600464,25.920203,http://ourbumble.com/captains-village-lahemaa-national-park/,Mixed Parking,Small town car park
Estonia,Kasmu,,Village/Town/City,,€10.00,-34,59.600487,25.919105,http://ourbumble.com/captains-village-lahemaa-national-park/,Campsite,
Estonia,Vosu,,Village/Town/City,,€0.00,-43,59.575857,25.941127,http://ourbumble.com/manors-castles-mansions-estonia/,Mixed Parking,Town square
Estonia,Vosu,,Beach,,€0.00,-41,59.580482,25.967232,http://ourbumble.com/manors-castles-mansions-estonia/,Mixed Parking,Beach parking
Estonia,Sagadi,,Village/Town/City,,€0.00,60,59.537952,26.085055,http://ourbumble.com/manors-castles-mansions-estonia/,Mixed Parking,Sagadi museum
Estonia,Sagadi,,Village/Town/City,,€0.00,54,59.512895,26.019297,http://ourbumble.com/manors-castles-mansions-estonia/,Mixed Parking,"Rear of museum parking, tarmac surface"
Estonia,Rakvere,,Village/Town/City,,€0.00,89,59.348163,26.35047,http://ourbumble.com/manors-castles-mansions-estonia/,Mixed Parking,"Rakvere castle. Parking at the side but if you follow the road up to the castle, you can park on top."
Estonia,Lasila,,Countryside,,€0.00,85,59.348178,26.350426,http://ourbumble.com/manors-castles-mansions-estonia/,Mixed Parking,Railway Manor
Estonia,Kabli,,Beach,,€0.00,1,58.014014,24.449056,http://ourbumble.com/riding-the-baltic-storms-roads-cesis/,Rest Area,Behind observation tower cracking little spot. Plenty wild life trails and good for bird watching by the beach
Estonia,Kabli,,,,€0.00,9,58.01194,24.44948,http://ourbumble.com/riding-the-baltic-storms-roads-cesis/,Mixed Parking,Beach parking.
Estonia,Kabli,,,,€0.00,44,57.964642,24.406556,http://ourbumble.com/riding-the-baltic-storms-roads-cesis/,Mixed Parking,Parking in the woods close to the beach.
Estonia,Keapi,,,,€0.00,-35,58.055869,24.446873,http://ourbumble.com/riding-the-baltic-storms-roads-cesis/,Mixed Parking,Dedicated parking with toilet facilities but no fresh water
Estonia,Laane,,Countryside,,€0.00,138,59.147124,26.438189,http://ourbumble.com/soviet-missile-bases-trail/,Wild,Visit the nuclear bunkers.
Estonia,Laane,,Countryside,,€0.00,144,59.147128,26.438151,http://ourbumble.com/soviet-missile-bases-trail/,Wild,More bunkers
Estonia,Parnu,,Lake,,€0.00,34,58.391129,24.516671,http://ourbumble.com/summer-spot-latvia/,Mixed Parking,Nice spot facing lake
Estonia,Parnu,,,,€0.00,1,58.387151,24.492084,http://ourbumble.com/summer-spot-latvia/,Mixed Parking,On the marina. Originally dedicated camper parking but when we arrived construction site.
Estonia,Tallin,,Harbour,,€20.00,6,59.466263,24.82304,http://ourbumble.com/towers-torches-towns-tallinn/,Mixed Parking & Services,"Working port with secure parking. Room for 50 campers. Supermarket and cafe within walking distance. Basic but functional. Price includes toilets, electric and services. Showers €2 extra."
Finland,Napaiiri,,,,€0.00,135,66.544219,25.851427,http://ourbumble.com/end-nightless-nights-heat-wave-santa/,Mixed Parking & Services,Santas village. Toilet and basic facilities but no grey waste. Free wifi
Finland,Napapiiri,,Lake,,€0.00,146,66.532384,25.845525,http://ourbumble.com/end-nightless-nights-heat-wave-santa/,Mixed Parking & Services,Parking area near recreation area inc outside swim area.
Finland,Turku,,Village/Town/City,,€0.00,34,60.454835,22.239592,http://ourbumble.com/flying-finn-oldest-town-finland-turku/,Mixed Parking,Parking area near Lidl.
Finland,Turku,,Village/Town/City,,€0.00,11,60.441158,22.246346,http://ourbumble.com/flying-finn-oldest-town-finland-turku/,Mixed Parking,Parking by the river.
Finland,Turku,,Village/Town/City,,€0.00,-5,60.437389,22.235615,http://ourbumble.com/flying-finn-oldest-town-finland-turku/,Mixed Parking,Castle parking with an 8 hour restriction
Finland,Turku,,Countryside,,€0.00,14,60.432995,22.180109,http://ourbumble.com/flying-finn-oldest-town-finland-turku/,Mixed Parking,Small parking area.
Finland,Turku,,Countryside,,€0.00,6,60.428221,22.178304,http://ourbumble.com/flying-finn-oldest-town-finland-turku/,Wild,Car park in pleasant area for walks etc.
Finland,Kokkola,,Beach,"TrashToiletsShowersFresh WaterBlack Water",€0.00,0,64.084375,23.413688,http://ourbumble.com/great-finnish-hospitality-longest-beach/,Wild,Small headland with water and service at the end.
Finland,Kovjoki,,Countryside,,€0.00,8,63.562543,22.72155,http://ourbumble.com/great-finnish-hospitality-longest-beach/,Rest Area,Parking spot on lake next to plastic elks
Finland,Voyri,,Countryside,,€0.00,-28,63.290793,22.369205,http://ourbumble.com/great-finnish-hospitality-longest-beach/,Mixed Parking,Picnic area
Finland,Mustasaari,,,,€0.00,30,63.157316,21.998374,http://ourbumble.com/great-finnish-hospitality-longest-beach/,Rest Area,At the side of a lake - good for bird watching
Finland,Kristiinankaupunki,,,,€0.00,41,62.206954,21.519953,http://ourbumble.com/great-finnish-hospitality-longest-beach/,Rest Area,Lay-by next to main road.
Finland,Pori,,Countryside,,€0.00,0,61.489658,21.78388,http://ourbumble.com/great-finnish-hospitality-longest-beach/,Mixed Parking,Garage and parking on river. Better than it sounds.
Finland,Rovaniemi,,Village/Town/City,,€0.00,116,66.507897,25.734185,http://ourbumble.com/santas-magic-missing-artikum-museum/,Mixed Parking,Including water and rug drying facilty
Finland,Tervola,,Countryside,,€0.00,26,66.011219,24.707245,http://ourbumble.com/santas-magic-missing-artikum-museum/,Mixed Parking,Parking area near a museum
Finland,Vikajarvi,,Countryside,"TrashToiletsFresh Water",€0.00,123,66.61958,26.185594,http://ourbumble.com/sleeping-land-bears-wolves-vikajarvi/,Rest Area & Services,Cabin with facilities for fire. Canoeing centre. Great walks all around the area.
Finland,Rovaniemen,,,,€0.00,158,66.545548,25.850319,http://ourbumble.com/sleeping-land-bears-wolves-vikajarvi/,Service Only,Parking at a fuel station
Finland,Kemi,,Harbour,,€0.00,-5,65.727706,24.555913,http://ourbumble.com/sometimes-just-enough-perfect-kemi/,Mixed Parking,Marina
Finland,,,Countryside,,€0.00,-5,65.442878,25.373133,http://ourbumble.com/sometimes-just-enough-perfect-kemi/,Rest Area,Lay-by near a roadside cafe
Finland,Lin Hamina,,Countryside,,€0.00,3,65.316182,25.373087,http://ourbumble.com/sometimes-just-enough-perfect-kemi/,Mixed Parking,Parking area at a fuel station.
Finland,Ojakyla,,Countryside,,€0.00,11,65.289356,25.372859,http://ourbumble.com/sometimes-just-enough-perfect-kemi/,Mixed Parking,Parking area at a fuel station.
Finland,,,,,€0.00,8,65.009218,25.453092,http://ourbumble.com/sometimes-just-enough-perfect-kemi/,Wild,Small marina  / boat yard
Finland,Raahe,,,,€0.00,12,64.694377,24.680143,http://ourbumble.com/sometimes-just-enough-perfect-kemi/,Rest Area,Plus nice walks in and around the woods.
Finland,Raahe,,Countryside,,€0.00,15,64.623856,24.424274,http://ourbumble.com/sometimes-just-enough-perfect-kemi/,Rest Area & Services,Parking area near a cafe.
Finland,Inari,Martinjarvi Erilli,Countryside,,€0.00,172,68.827121,27.288619,http://ourbumble.com/south-last-wilderness-europe/,Rest Area,Small tarmac parking area just set back from the road. Nice walking in the surrounding trees too.
Finland,Inari,,Lake,,€0.00,144,68.807401,27.36122,http://ourbumble.com/south-last-wilderness-europe/,Rest Area,Parking by a lake on a small side road.
Finland,Inari,Saulin Kurvi,Countryside,,€0.00,113,68.790403,27.388404,http://ourbumble.com/south-last-wilderness-europe/,Rest Area,Lay By set back from the main road.
Finland,Inari,Ohman,Lake,,€0.00,95,68.767074,27.450858,http://ourbumble.com/south-last-wilderness-europe/,Rest Area,Small parking area by the main road and next to the lake.
Finland,Inari,Ukonjarvi Info,Lake,,€0.00,127,68.743251,27.447173,http://ourbumble.com/south-last-wilderness-europe/,Rest Area,Small parking area by the main road and next to the lake.
Finland,Inari,Hirvasjarvi,Countryside,,€0.00,191,68.510163,27.515563,http://ourbumble.com/south-last-wilderness-europe/,Rest Area,Small parking area by the main road.
Finland,Inari,Savottakahila,Countryside,,€0.00,295,68.39062,27.397165,http://ourbumble.com/south-last-wilderness-europe/,Rest Area,Large tarmac parking area near a hotel.
Finland,Inari,Paukkula,Countryside,Trash,€0.00,275,68.372124,27.361381,http://ourbumble.com/south-last-wilderness-europe/,Rest Area,Lay-by next to wooded area just off main road.
Finland,Inari,,Countryside,Trash,€0.00,280,68.341729,27.336275,http://ourbumble.com/south-last-wilderness-europe/,Rest Area,Lay-bys on both sides of the road.
Finland,,,Countryside,,€0.00,284,68.208825,27.114653,http://ourbumble.com/south-last-wilderness-europe/,Rest Area,Lay-by next to wooded area just off main road.
Finland,Vuotso,,Countryside,,€0.00,226,68.10327,27.127941,http://ourbumble.com/south-last-wilderness-europe/,Wild,Nice tarmac area next to the river. Can also park on the other side of the road.
Finland,Vuotso,,Countryside,,€0.00,226,68.104444,27.124324,http://ourbumble.com/south-last-wilderness-europe/,Wild,Nice tarmac area next to the river. Can also park on the other side of the road.
Finland,Vuotso,,Countryside,"ToiletsTrash",€0.00,284,68.038522,27.047248,http://ourbumble.com/south-last-wilderness-europe/,Rest Area & Services,Parking area by the main road.
Finland,Vuotso,,Lake,,€0.00,209,67.912632,26.748873,http://ourbumble.com/south-last-wilderness-europe/,Rest Area,Parking area near lake
Finland,Peurasuvanto,,Countryside,,€0.00,182,67.798246,26.778077,http://ourbumble.com/south-last-wilderness-europe/,Wild,Dirt track next to lake but close to main road.
Finland,Sattanen,,Countryside,,€0.00,167,67.515325,26.632595,http://ourbumble.com/south-last-wilderness-europe/,Rest Area,Indicates service area on signs but no services just parking
Finland,Sodankyla,,Countryside,,€0.00,152,67.338888,26.651709,http://ourbumble.com/south-last-wilderness-europe/,Rest Area,Parking spot next to campsite
Finland,,,Countryside,,€10.00,185,67.020164,26.395638,http://ourbumble.com/south-last-wilderness-europe/,Rest Area & Services,"Cafe, petrol station and overnight stopping with electricity points for €5 extra"
Finland,Korvala,,,Toilets,€0.00,144,66.885856,26.183541,http://ourbumble.com/south-last-wilderness-europe/,Rest Area & Services,"Lay-by area with toilets, not very clean though but nice enough spot to stop over."
Finland,Korvala,,Countryside,Trash,€0.00,139,66.885465,26.18343,http://ourbumble.com/south-last-wilderness-europe/,Rest Area,Picnic spot by the main road.
Finland,,,Countryside,Trash,€0.00,120,66.725875,26.280745,http://ourbumble.com/south-last-wilderness-europe/,Rest Area,Layby
Finland,Rauma,,Harbour,,€0.00,-10,61.141999,21.480635,http://ourbumble.com/step-back-time-historic-rauma/,Mixed Parking,Good clean spot on the marina.
Finland,Rauma,,Village/Town/City,,€0.00,17,61.130792,21.512269,http://ourbumble.com/step-back-time-historic-rauma/,Mixed Parking,Stone church with overnight parking.
Finland,Laitila,,Countryside,,€0.00,1,60.894733,21.654918,http://ourbumble.com/step-back-time-historic-rauma/,Rest Area,Lay-by beside main road.
Finland,Helsinki,,Village/Town/City,,€0.00,-4,60.166834,24.979084,http://ourbumble.com/summer-time-retreat-helsinki/,Mixed Parking,Car park at side of port. Limited to 10 hours parking but ideal for parking whilst wait for ferry.
Finland,Kalajoki,,Village/Town/City,,€0.00,3,64.253747,23.940494,http://ourbumble.com/swimming-baltic-kalajoki/,Mixed Parking,Parking area at church and museum.
Finland,,,Village/Town/City,,€0.00,-3,64.231308,23.814065,http://ourbumble.com/swimming-baltic-kalajoki/,Mixed Parking,Water park
Finland,Kalajoki,,Beach,,€0.00,14,64.233892,23.788238,http://ourbumble.com/swimming-baltic-kalajoki/,Wild,Beach
Finland,Oulu,,Village/Town/City,,,,65.009421,25.454109,http://ourbumble.com/swimming-baltic-kalajoki/,Wild,Parking next to water and park area.
Finland,Kalajoki,,Countryside,,€0.00,-20,64.060665,23.654506,http://ourbumble.com/swimming-baltic-kalajoki/,Mixed Parking,Pleasant church car park with water available.
Finland,Turku,,Countryside,,€0.00,-15,60.428228,22.178722,http://ourbumble.com/tiny-islands-sunset-capital-helsinki/,Wild,"Wild / spare land Small island off Turku, Very quiet and peaceful"
Finland,Turku,,Village/Town/City,,€0.00,58,60.406486,23.215288,http://ourbumble.com/tiny-islands-sunset-capital-helsinki/,Service Only,Services
Finland,Helsinki,,Village/Town/City,,€0.00,4,60.173108,24.906837,http://ourbumble.com/tiny-islands-sunset-capital-helsinki/,Mixed Parking,Car Park.
Finland,Helsinki,,Lake,,€0.00,10,60.171969,24.903232,http://ourbumble.com/tiny-islands-sunset-capital-helsinki/,Mixed Parking,No restrictions and overlooking water
Finland,Helsinki,,Lake,,€0.00,30,60.172531,24.902171,http://ourbumble.com/tiny-islands-sunset-capital-helsinki/,Mixed Parking,Quiet spot on large boulder overlooking water. Water pump a few meters away
Finland,Naantali,,Village/Town/City,,€0.00,30,60.464287,22.022464,http://ourbumble.com/weird-wild-camping-pretty-town-naantali/,Mixed Parking,Sports complex with toilet facilites
Finland,Kokkola,,,,€0.00,-9,64.021956,23.500222,http://ourbumble.com/,Mixed Parking,Church and museum
France,Diksmuide,Ijzerdijk,Village/Town/City,Trash,€0.00,4,51.030514,2.853777,http://ourbumble.com/a-proper-belgium-bun-in-belgium/,Mixed Parking,Free car park at ijzerdijk tower. Quiet except for the odd passing train.  5 minutes walk in to the village centre
France,Baleruc les Bains,,Village/Town/City,"Fresh WaterGrey WaterBlack WaterTrashToiletsElectric",€0.00,12,43.445732,3.677563,http://ourbumble.com/beziers-to-pont-du-gard/,Rest Area & Services,Small free aire for 6 Motorhomes.  Located to one side of a large car park and within walking distance of the town and waters edge
France,Montpellier,,Village/Town/City,,€0.00,28,43.613193,3.887071,http://ourbumble.com/beziers-to-pont-du-gard/,Mixed Parking,"Flat level car park.  The car park is metered between 9-6 at €1.30 per hour.  However, if you drive right to the very end near Daikia building there are a dozen parking spots that are not metered.  Quiet at night and within easy walking distance of the city."
France,Saint Aunės,,Village/Town/City,,€0.00,58,43.644123,3.962388,http://ourbumble.com/beziers-to-pont-du-gard/,Mixed Parking,"Flat, leave and quiet along tree lined street. The parking bays are covered with trees, so plenty shelter and also good protection for the rear/front of the van.  Narbonne accessories are only a few kilometres down the road and so unfurl if you need to stay over.  Better than staying on the industrial estate."
France,Nimes ,,Village/Town/City,,€0.00,41,43.82632,4.357532,http://ourbumble.com/beziers-to-pont-du-gard/,Mixed Parking,"Nimes city centre is paid parking but this little car park is right on the edge of the paid area, so very close to city.  Off main road, so reasonably quiet but there is still passing traffic and trains"
France,Nimes,,Village/Town/City,Trash,€0.00,42,43.824272,4.354734,http://ourbumble.com/beziers-to-pont-du-gard/,Mixed Parking,"Small car park, flat and tarmaced.  Not far from centre and close by to water tap.  Reasonably quiet but the still  trains at night can be loud.  "
France,Pont du Gard,,Countryside,,€0.00,26,43.954818,4.546343,http://ourbumble.com/beziers-to-pont-du-gard/,Wild,Small piece of land which is only 2km from the Pont du Gard entrance.
France,Rouen,,Village/Town/City,Rubbish,€0.00,,49.43018,1.10566,http://ourbumble.com/here-we-go-trip-2015/,Mixed Parking,"Parking area next to the Seine river, 15 minute walk to the Cathedral. Sports facility next door."
France,Chartres,,Village/Town/City,,€0.00,,48.43467,1.49631,http://ourbumble.com/here-we-go-trip-2015/,Wild,Laybye next to the Les Bords de l'Eure campsite which is closed out of season.
France,Chartres,,Village/Town/City,"ToiletsRubbishFresh WaterGrey WaterBlack Water",€0.00,,48.43467,1.49631,http://ourbumble.com/here-we-go-trip-2015/,Campsite,Les Bords de l'Eure campsite closed in winter so cannot comment on facilities. Appeared clean & tidy though.
France,Chambord,,Village/Town/City,,€0.00,,47.61593001,0.51135,http://ourbumble.com/here-we-go-trip-2015/,Mixed Parking,"7€ to park in the day & another 10€ to park overnight although the signs indicate it would be 10€ for everything, Water taps onsite but not working as of 13/12/14. The Chateaux entrance fee is 11€ for adults."
France,Chaunay,,Village/Town/City,,€0.00,,46.20585,0.16371,http://ourbumble.com/here-we-go-trip-2015/,Mixed Parking,"Car park located next to the Chateaux, entrance price is €12.50 but free parking, no facilities but right next to the village centre."
France,Bordeaux,,Village/Town/City,,€0.00,,44.865253,0.518078,http://ourbumble.com/here-we-go-trip-2015/,Mixed Parking,"Car park located near main road so some noise, lots of space though and easy access to the shops at Carrefour."
France,Biaritz,Aire de Biaritz,Beach,"Fresh WaterGrey WaterBlack WaterRubbish",€0.00,,43.465963,1.571922,http://ourbumble.com/here-we-go-trip-2015/,Rest Area & Services,"Expensive for what it is, free electricity but no other extra facilities for your money, watch out for the machine on entry as it is easy to pay for 2 nights (max) instead of one.This Aire is only 2 minutes walk from a great beach."
France,Dorres,,Countryside,Trash,€0.00,1434,42.486905,1.944741,http://ourbumble.com/llorvorsi-to-villefranche-de-la-chalfort/,Mixed Parking,Loose gravel car park on a bit of a slope.  Nice and quiet and only 5 minutes walk to natural Roman baths.
France,Villefranche de Conflent,,Village/Town/City,Trash,€2.00,451,42.586207,2.365764,http://ourbumble.com/llorvorsi-to-villefranche-de-la-chalfort/,Mixed Parking,Small off the road car park which is idea for visiting the village.  Overnight is free and small parking fee of €2 for the day 9-19.
France,Callelongue,,Beach,Trash,€0.00,68,43.211733,5.350966,http://ourbumble.com/marseilles-to-saint-paul-de-vence/,Wild,On the tip of the headland as you look across the bay to Marseille.  Stunning location and right next door to a small fishing village.  No services but well worth it for the peace and view.
France,La Seyne Sur Mer,,Village/Town/City,,€0.00,5,43.117686,5.884093,http://ourbumble.com/marseilles-to-saint-paul-de-vence/,Mixed Parking,Small car park.  No facilities but Tarmac suface and level.  No restrictions.
France,Toulon,,Village/Town/City,,€0.00,19,43.127034,5.936636,http://ourbumble.com/marseilles-to-saint-paul-de-vence/,Mixed Parking,Toulon city centre car park that permits campers.  9-17 €2.50 flat fee but free there after.  Quite a few homeless people in and around camper parking.
France,Le Pradet,,Beach,Trash,€0.00,50,43.102025,6.016674,http://ourbumble.com/marseilles-to-saint-paul-de-vence/,Mixed Parking,Dusty gravel car park with plenty trees offering shade.  A bit uneven in places but plenty opportunity to find right spot.  Access to two beaches - one nudist and one regular.  Both pebble coves.  Nice and quiet in the evenings.
France,Hyeres,,Beach,,€0.00,-6,43.114064,6.195387,http://ourbumble.com/marseilles-to-saint-paul-de-vence/,Mixed Parking,Good little car park for free 24 stop over.  No facilities but right on beach and not far from village
France,La Londe les Maures,,Village/Town/City,"Fresh WaterGrey WaterBlack WaterTrash",€0.00,19,43.131923,6.230595,http://ourbumble.com/marseilles-to-saint-paul-de-vence/,Mixed Parking,Small free sire with basic site services . Machine was not in service but plenty space and level Tarmac surface.
France,Le Lavandou,,Beach,Trash,€0.00,35,43.149637,6.415975,http://ourbumble.com/marseilles-to-saint-paul-de-vence/,Wild,Wide pavement / lay by for parking with nice elevated views over the coast.  A few minutes walk to the beach.
France,Plate de Gigaro,,Beach,Trash,€0.00,4,43.185621,6.594047,http://ourbumble.com/marseilles-to-saint-paul-de-vence/,Mixed Parking,"On street parking.  Flat and Tarmac, right on beach front.  Metered during the day 9-19 which is €1 per hour. May be able to stay overnight out of season."
France,Pampelonne,,,,€0.00,20,43.21983,6.647665,http://ourbumble.com/marseilles-to-saint-paul-de-vence/,Wild,"Waste land not to far from the beach, land is uneven and not ideal. There is shade though from the trees."
France,Roquebrune sur Argens,,Village/Town/City,,€0.00,20,43.21983,6.647665,http://ourbumble.com/marseilles-to-saint-paul-de-vence/,Mixed Parking,"Car park located opposite Motorhome stores next to main road, quiet at night and space for about 10 vans."
France,Nice,,,,€0.00,,43.67725,7.21913,http://ourbumble.com/marseilles-to-saint-paul-de-vence/,Mixed Parking,"Car park next to cemetery, with shade under some pine trees, dedicated parking for 4 vans but lots of space on the car park, and side street."
France,Saint-Laurent-du-Var,,Village/Town/City,"Fresh WaterGrey WaterBlack WaterTrash",€0.00,32,43.677015,7.201751,http://ourbumble.com/marseilles-to-saint-paul-de-vence/,Rest Area & Services,"Aired located about 6km from the beach and 1km to town, on main road but very quiet at night. Space for about 10 vans. Black waste goes in the grid with the grey water."
France,Cagnes sur mer,Montée du Souvenir,Village/Town/City,,€0.00,162,43.6688,7.144778,http://ourbumble.com/marseilles-to-saint-paul-de-vence/,Mixed Parking,"Small parking space next to a car park and cemetery, space for 2 vans only. Close to lidl and the town centre, there is a national monument next to it also.Site slopes downhill slightly."
France,Calais,,Harbour,"ToiletsRubbishFresh WaterGrey WaterBlack Water",€0.00,,50.96586,1.84347,http://ourbumble.com/more-to-calais-than-a-port/,Rest Area & Services,"Now closed, aire now in located back towards the town centre on your right."
France,Dunkirk,,Beach,Trash,€0.00,-12,51.053255,2.414562,http://ourbumble.com/operation-dynamo/,Rest Area & Services,"Free aire with space for 30 van, no services but water and toilets available on the promenade which is right next to the aire.Good spot right on the beach"
France,Bray Dunes,,Beach,"TrashToilets",€0.00,3,51.078026,2.514775,http://ourbumble.com/operation-dynamo/,Mixed Parking,"Car with permitted motorhome and coach parking. No limits on stay and overnight permitted. One block away from beach front and promenade.  Tourist information building adjacent to the car park.Toilet facilities for fresh water and emptying loo. "
France,Avignon,,Village/Town/City,Trash,€0.00,18,43.946695,4.795135,http://ourbumble.com/pont-du-gard-to-marseilles/,Mixed Parking,On street parking located at the side of the river.  Quiet and shaded and not far from town.
France,Chateau du Pape,,Village/Town/City,Trash,€0.00,119,44.058179,4.82877,http://ourbumble.com/pont-du-gard-to-marseilles/,Mixed Parking,Small car park right next to ruin and great views over vineyards.  No facilities but the location is stunning.  2 minutes to village with plenty options for wine tasting.
France,Sentient du Vallon,,Village/Town/City,"Fresh WaterGrey WaterToiletsTrash",€0.00,108,43.869822,5.145815,http://ourbumble.com/pont-du-gard-to-marseilles/,Mixed Parking,Small free car park at lavender museum.  Water tap and tolerates overnight parking.
France,Gorges,,Village/Town/City,Trash,€0.00,278,43.901133,5.193127,http://ourbumble.com/pont-du-gard-to-marseilles/,Wild,Large open land just outside of gorges.  No facilities but plenty places to park up 
France,Lourmarin,Lourmarin Chateau,Village/Town/City,Trash,€0.00,,43.762275,5.359397,http://ourbumble.com/pont-du-gard-to-marseilles/,Mixed Parking,A small little artistic village with chateau.  Parking on the road on a small car park in the village but get very busy in peak season.  Water fountain in town but difficult to fill containers due to limescale build up.
France,Aix Provençal ,,Village/Town/City,,€0.00,194,43.524569,5.460495,http://ourbumble.com/pont-du-gard-to-marseilles/,Wild,Spare piece of land at the side of the Pays D'Aix football ground.  Large stone surface and flat.  Only 2k to city.
France,Marseille ,,Village/Town/City,Trash,€0.00,10,43.277756,5.355302,http://ourbumble.com/pont-du-gard-to-marseilles/,Mixed Parking,"Excellent spot for wild camping in a city.  Straight on the front, a couple of miles out of the city and great sunsets.  On a main road, which is quieter in evening.  "
France,Saint paul de vence,,Village/Town/City,Trash,€0.00,228,43.702302,7.116813,http://ourbumble.com/saint-paul-du-vence-to-santo-stefano-la-mare/,Mixed Parking,Dedicated motorhome parking for 7 vans just past the coach parking area. Partial shade from trees. Just a short walk to the village centre. Maximun stay is 48 hours. Makes sure you follow the sign post for the town though as the tomtom takes you down narrow roads that may be a problem for wider vans.
France,Vence,,,,€0.00,290,43.72024,7.111486,http://ourbumble.com/saint-paul-du-vence-to-santo-stefano-la-mare/,Mixed Parking,Parking space located next to supermarket and just on the end of town.  Overnight parking permitted
France,Codalet,Abbey Saint Michael de Cuza,Countryside,"TrashToilets",€0.00,443,42.59482,2.416067,http://ourbumble.com/villefranche-de-confluent-to-bezier/,Mixed Parking,Small car park for visiting the abbey with no restrictions.  Toilet facilities just to the left as you enter the abbey grounds.
France,Cucugnan,Chateau de Quéribus,Countryside,,€0.00,603,42.839655,2.619388,http://ourbumble.com/villefranche-de-confluent-to-bezier/,Mixed Parking,One of the best wild camping spots but not for the faint hearted.  Perched right at the end of the chateau car park on the tip of the rock.  Brilliant 360 views of countryside and chateau.
France,Peyrepertuse,,Countryside,,€0.00,399,42.870006,2.57273,http://ourbumble.com/villefranche-de-confluent-to-bezier/,Mixed Parking,Small lay by suitable for overnight stop if visiting the chateau.  Loose gravel on a slope but a few flat spots.
France,Alets les Bains,,Village/Town/City,Trash,€0.00,208,42.998196,2.256028,http://ourbumble.com/villefranche-de-confluent-to-bezier/,Mixed Parking,Plenty room for on street parking with no restrictions. Fresh water near sports facility.  Old town has height restriction of 2.5m
France,Alets les Bains,Open air swimming pool,Village/Town/City,"Fresh WaterTrashToiletsShowers",€0.00,208,43.000472,2.252025,http://ourbumble.com/villefranche-de-confluent-to-bezier/,Mixed Parking,"Flat, Tarmac car park right at the side of the open air swimming pool,  fresh water spring and communal washing area.  Two minutes walk in to village with basic village shops. Swimming pool €3 includes toilets and showers."
France,Carcassonne,,Village/Town/City,,€0.00,122,43.208924,2.379624,http://ourbumble.com/villefranche-de-confluent-to-bezier/,Mixed Parking,"Small car park tucked between two small retail outlets and facing the post office.  The units are unoccupied and free to park.  Flat, Tarmac and level.  Parking inside town €20 for the day."
France,Carcassonne ,,Village/Town/City,,€0.00,99,43.211409,2.358996,http://ourbumble.com/villefranche-de-confluent-to-bezier/,Mixed Parking,Main car parks in city cost €2 per hour or €20 per day.  We found this free parking spot right by the river and overlooking the walled city.  Tarmac and level.  Follow for hospital and then take a right turn under bridge and parking just there.  All marked out and free with no restrictions.
France,Beziers,,Village/Town/City,,€0.00,9,43.323007,3.289735,http://ourbumble.com/villefranche-de-confluent-to-bezier/,Mixed Parking,"Car park with no restrictions.  Great for visiting bricoman, Motorhome accessory shop, supermarket and cheap fuel. Very quiet in the evenings"
France,Beziers,,Village/Town/City,"Fresh WaterGrey WaterBlack WaterTrash",€0.00,2,43.316624,3.284659,http://ourbumble.com/villefranche-de-confluent-to-bezier/,Wild,Free to park along the canal and €2 for camper services.  Great view along the canal with colourful barges.  Also aire along the canal
France,Beziers,,Village/Town/City,,€0.00,5,43.335274,3.208102,http://ourbumble.com/villefranche-de-confluent-to-bezier/,Mixed Parking,"Quiet, lose gravel road at the side of the canal and within minutes of town centre.  Right at the side of an old disused lock."
Germany,Alpen,,Countryside,,€0.00,48,51.563234,6.485747,http://ourbumble.com/3-countries-in-1-day/,Mixed Parking,"Parking area off the main road, no facilities but nice views over the fields, hard surface with a very slight slope in places. "
Germany,Munster,Freilichtmuseum Muhlenhof,Village/Town/City,Trash,€0.00,75,51.9504,7.596256,http://ourbumble.com/amps-down-then-up-to-munster/,Mixed Parking,"Flat car park with small bays set amongst trees, bushes and lawned area.  No services and free to park with no time restrictions.  About 2-3km in to centre.Sport facility offers toilets and fresh water"
Germany,Julich,,Village/Town/City,"Fresh WaterGrey WaterBlack WaterTrashToiletsShowersElectric",€8.50,,50.92336,6.34041,http://ourbumble.com/cologne-to-uk/,Rest Area & Services,"Good Aire with clean facilities, good shower block located at one end, close to a large park area. Some pitches block paved, most on a large grassy area with no electricity posts. Price includes electricity though."
Germany,Bremen,Kuhhirtenweg,Village/Town/City,"Fresh WaterGrey WaterBlack WaterTrashToiletsShowersElectric",€13.00,2,53.065284,8.820188,http://ourbumble.com/fairytale-city-of-breman/,Campsite,"Campsite 1.2km from centre.  Hard ground, loose gravel surface. Toilet blocks and showers additional charge €1. Electric additional chargeat approx €0.10 per hour. Fresh water €1 for 100 litre. Staff extremely helpful and friendly with city map and info. Fresh bread can be ordered daily and delivered to the door.01739850092"
Germany,Plon,,Lake,"Fresh WaterGrey WaterTrash",€5.00,19,54.152817,10.403975,http://ourbumble.com/fifty-shades-of-grey/,Rest Area & Services,Dedicated camper parking with the grounds of a larger car park.  Fresh and grey water facilities located at the entrance of the main car park.  Hard surface with nice views over the lake.
Germany,Lindau,,,,€20.00,403,47.558092,9.7006,http://ourbumble.com/how-to-zoom-through-5-countries-in-1-day/,Rest Area,With fresh water
Germany,Bad Waldsee,Hymer Dealer,Village/Town/City,Electric,€0.00,609,47.92937,9.761676,http://ourbumble.com/krugzell-to-cologne/,Mixed Parking,Small number of parking bays for motorhomes visiting service centre. Electric €1 for 2000w.
Germany,Wolfegg,,Village/Town/City,"Fresh WaterGrey WaterBlack WaterTrashElectricWi-Fi",€5.00,677,47.816007,9.797776,http://ourbumble.com/krugzell-to-cologne/,Rest Area & Services,"Aire at the back of car park.  Five minutes walk to village, church, Schloss, museums.  Tourist office has free wifi with good connection.In addition to €5 for overnight stay the facilities offer Water €1 for 80lElectric €0.50 for 1000wVery quiet and peaceful location."
Germany,Weingarten,,Village/Town/City,"Fresh WaterGrey WaterBlack WaterElectric",€0.00,449,47.810354,9.63041,http://ourbumble.com/krugzell-to-cologne/,Rest Area & Services,"Oblong strip at the side of the main coach and car park.  Parking bays divided by tree.  On loose gravel and grass.Empty grey and black €1Fresh water €1 for 100l"
Germany,Meersburg,,Village/Town/City,"Fresh WaterGrey WaterBlack WaterTrashToiletsElectric",€6.00,482,47.701636,9.27195,http://ourbumble.com/krugzell-to-cologne/,Rest Area & Services,"Three aires/ car parks on one road, all approximately 1 kilometre from village centre. 1. Left at the roundabout and the largest of the 3 aires. €10 per night. 2. Right at the roundabout €10 per night. 3. Just after the no 2 behind fire station €6 per night. All aires are pay and display, not manned and no barriers.  1 and 2 have Euro service point upon entry\exit for additional fee. All loose gravel and stone."
Germany,Tengen,,Village/Town/City,,€0.00,635,47.816407,8.660692,http://ourbumble.com/krugzell-to-cologne/,Mixed Parking,"Large, concrete & stone car park.  No facilities and permits overnight parking."
Germany,Schluchsee,,Lake,"Fresh WaterGrey WaterBlack WaterTrashElectric",€0.00,20,47.814878,8.1180478,http://ourbumble.com/krugzell-to-cologne/,Rest Area & Services,Nice aire for €10 24 hours plus electric and services.  Park around the corner for free.
Germany,Feldberg,,Countryside,,€0.00,1278,47.861016,8.035128,http://ourbumble.com/krugzell-to-cologne/,Mixed Parking,Dusty carpark but free with no overnight restrictions.  
Germany,Sindelfingen,,Village/Town/City,,€0.00,450,48.706313,9.027543,http://ourbumble.com/krugzell-to-cologne/,Mixed Parking,Not the best parking spot but safe and quiet.  It is the main hymer dealer and test centre in Stuttgart. Parking inside or outside of the barriers.
Germany,Stuttgart,,Village/Town/City,"Fresh WaterTrash",€1.50,275,48.79859,9.185381,http://ourbumble.com/krugzell-to-cologne/,Mixed Parking,"Street parking at side of college and cemetery. 1km to main historical elements of Stuttgart.  Quiet and if you park at the end of the road it is level. Paid parking 8-18 at €1.50 for 2 hours. Side gate to cemetery for fresh waterTop of street is the main road and you can catch tram to centre or walk through gardens."
Germany,Stuttgart,,Village/Town/City,Trash,€0.00,402,48.696394,9.185608,http://ourbumble.com/krugzell-to-cologne/,Mixed Parking,"Car park next to the airport, there is also an Aire next to it with full services, cost unknown for the Aire."
Germany,Ludwigsburg,,Village/Town/City,"Fresh WaterGrey WaterBlack WaterTrashElectric",€3.00,,48.8934,9.19754,http://ourbumble.com/krugzell-to-cologne/,Mixed Parking,"Car park 200m away from the main sights. Excellent services, electricity is 50 cents for 1/2 KwCosts are €10 for 24 hours but using the parking machine is much cheaper."
Germany,Eppingen,,Village/Town/City,Trash,€0.00,,49.17115,8.94185,http://ourbumble.com/krugzell-to-cologne/,Mixed Parking,"Small car park behind the bank, very quite but also a recycling point."
Germany,Neckargemund,,Village/Town/City,,€0.00,,49.39622,8.79543,http://ourbumble.com/krugzell-to-cologne/,Mixed Parking,Free car park next to Asci campsite. Right on the river with lovely views and a pleasant town to visit.
Germany,Neckargemund,,Village/Town/City,,€0.00,,49.39518,8.78828,http://ourbumble.com/krugzell-to-cologne/,Mixed Parking,Parking area behind the Rathus. 5 minutes walk into the town centre.
Germany,Heidelberg,,,"Fresh WaterToilets",€0.00,,49.41239,8.68099,http://ourbumble.com/krugzell-to-cologne/,Mixed Parking,"Roadside parking on the opposite side of the river to Heidelberg, great views and close to the centre."
Germany,Worms,,Village/Town/City,,€0.00,,49.63458,8.375006,http://ourbumble.com/krugzell-to-cologne/,Mixed Parking,"Parking area with a camper stop next door, nice walks along the Rhine and 15 mins walk to the centre."
Germany,Oppenheim,Womoland Oppenheim,Village/Town/City,,€0.00,,49.85624,8.364792,http://ourbumble.com/krugzell-to-cologne/,Mixed Parking,"Aire on the edge of town, Grass area and stone. Toilet block was closed in November. Electricity is €3"
Germany,Bacharach,,Village/Town/City,"Fresh WaterGrey WaterBlack WaterTrashElectric",€5.00,,50.05492,7.77222,http://ourbumble.com/krugzell-to-cologne/,Rest Area & Services,Aire located right by the river. Gravel ground and close to the town centre. Electricity is €2.50
Germany,Spay,,Village/Town/City,,€0.00,,50.26106,7.6466,http://ourbumble.com/krugzell-to-cologne/,Mixed Parking,"Roadside parking in the centre of town, water is available at the cemetery just down the road, nice walks or cycle along the edge of the Rhine. Very close the rail tracks but the trains are very quiet."
Germany,Koblenz,,Village/Town/City,Trash,€0.00,,50.36547,7.57451,http://ourbumble.com/krugzell-to-cologne/,Mixed Parking,"Large car park 3km from centre of the sights, level gravel surface also used by coaches. Surrounded by businesses so quite secure. Just walk along the river bank to get straight into centre. Lidl 400m away on main road behind."
Germany,Maria Laach,Maria Laach Abbey,Countryside,"TrashToiletsFresh Water",€5.00,,50.40362,7.25401,http://ourbumble.com/krugzell-to-cologne/,Mixed Parking,"Car park opposite the Abbey close to the Laacher See lake. Probably very busy in summer, campers also allowed next to the campsite 2 miles down the road also €5."
Germany,Sinzig,,Village/Town/City,,€0.00,,50.54651,7.24864,http://ourbumble.com/krugzell-to-cologne/,Mixed Parking,"Small car park in town for both cars and campers, Level gravel surface backing onto small playing field. Very quiet at night. Centre approx 1km away."
Germany,Bonn,,,,€0.00,,50.70961,7.13891,http://ourbumble.com/krugzell-to-cologne/,Rest Area,"Camper only area outside of centre, Next to major road so some noise but not to bad. Pleasant park just down the road."
Germany,Cologne Koln,,,,€0.00,,50.95575,6.97393,http://ourbumble.com/krugzell-to-cologne/,Wild,Park along the riverbank close to the zoo area. Town is 2km away but walkway straight there. Parking all along this stretch but free nearer the zoo end near the road bridge. and €4 per day elsewhere.
Germany,Lubeck,Media ,Village/Town/City,,€6.00,1,53.8716,10.678895,http://ourbumble.com/lack-lustre-lubeck/,Mixed Parking,"Media docks dedicated camper parking located in centre. Hourly rate €1.30 or €6 for the day.  No services but the coach park just opposite does offer toilet facilities. Holds around 12 motorhomes.  Flat, tarmac surface."
Germany,Bosau,,Village/Town/City,,€0.00,20,54.105433,10.427924,http://ourbumble.com/lack-lustre-lubeck/,Mixed Parking,Little village with a number of small parking spaces dotted around the village.
Germany,Ramsau,,Village/Town/City,"Fresh WaterTrashToiletsWi-Fi",€0.00,655,47.605812,12.908802,http://ourbumble.com/lake-jansa-to-lofer/,Mixed Parking,"Tourist information car park. Limited to 2 hours between 8am and 8pm but after 8pm no restrictions.  Toilet behind TI office.  Flat tarmac and reasonable bays for motorhomes.Just off main road but it is a quiet town, so quiet at night."
Germany,Königssee,,Lake,,€5.00,604,47.593066,12.988111,http://ourbumble.com/lofer-to-krugzell/,Mixed Parking,"Large car park with motorhome permitted parking to the left behind the garage.  The garage also sells GPL.  Stunning views to hills and lake only 10 minutes walk away.A few grids for emptying grey waste but no toilet facilities.  1 hour, €2 up to €5 for the day."
Germany,Obersalzberg,Documentation Centre,Countryside,Trash,€0.00,933,47.630839,13.041076,http://ourbumble.com/lofer-to-krugzell/,Mixed Parking,Large car park for visiting the Documentation centre.  P2 is free and no restrictions on overnight  camping.  Reasonably flat but it can run down in places.  If you park near the edge overlooking the centre best views for sunrise.
Germany,Berchtesgadener,,Village/Town/City,,€0.50,619,47.635746,13.005184,http://ourbumble.com/lofer-to-krugzell/,Mixed Parking,Small carpark right in centre of old town looking up to eagles nest.  €0.50 per hour
Germany,Maria Gern,,Countryside,,€0.00,743,47.653587,13.002803,http://ourbumble.com/lofer-to-krugzell/,Mixed Parking,Parking on gradient for visiting Maria Gern church.  Please note the car park at the bottom of the road does not permit campers.  
Germany,Bischofswiesen,,Countryside,,€0.00,668,47.643401,12.984513,http://ourbumble.com/lofer-to-krugzell/,Mixed Parking,"Big car park for the spa facility but only open during peak season. Out of season people park up and walk to Maria Gern church, which takes around an hour."
Germany,Ruhpolding,,Countryside,,€0.00,690,47.72494,12.658568,http://ourbumble.com/lofer-to-krugzell/,Mixed Parking,Large gravel car park mainly used by walkers and runners.  Nice and quiet but no amenities.  Lumberjack museum €4 pp.
Germany,Reit im Winkl,,Countryside,"ElectricToiletsTrashBlack WaterGrey WaterFresh Water",€13.00,668,47.669647,12.481615,http://ourbumble.com/lofer-to-krugzell/,Rest Area & Services,"End of autumn and the site is closed but you can use the facilities for €13.00 per night.  Electric is an extra €12.00The grounds and setting are nice but a tad expensive giving everything is shut including reception."
Germany,Oberaudorf,,Countryside,Trash,€0.00,734,47.672002,12.086872,http://ourbumble.com/lofer-to-krugzell/,Mixed Parking,Loose gravel parking space in middle of country.  Small lake and waterfall. Ideal for walking and hiking.  No limitations for overnight.
Germany,Flintsbach,,Countryside,,€0.00,1009,47.685178,12.056983,http://ourbumble.com/lofer-to-krugzell/,Mixed Parking,Small loose gravel car park. Ideal for walking or hiking in the area.  Popular with bikers at weekend.  No restrictions.
Germany,Schleirsee,,Lake,,€0.00,759,47.712379,11.869984,http://ourbumble.com/lofer-to-krugzell/,Mixed Parking,"Loose gravel car park at the edge of the lake. Just off main road, which can be busy at weekends. As you turn on to the car park you are better to park to the left, as the right hand side is busier with workers."
Germany,Garmisch Partenkirchen,,Village/Town/City,,€0.00,753,47.482513,11.119932,http://ourbumble.com/lofer-to-krugzell/,Wild,"Located just to the side of the sky jump.  Plenty of reasonable priced parking at the ski centre but it is unclear if overnight parking permitted, so we moved to spot just to the side for evening.  €2.50 for 12 hour day ticket."
Germany,Ettal,,Village/Town/City,Fresh Water,€2.00,847,47.567671,11.096769,http://ourbumble.com/lofer-to-krugzell/,Mixed Parking,"Small car park at the side of the cemetery.  €1 for 4 hours or €2 for 24 hrs.  No restrictions on parking but you will need you chocks to get level.Water point inside cemetery."
Germany,Oberammergau,,Village/Town/City,Trash,€0.00,829,47.595214,11.063918,http://ourbumble.com/lofer-to-krugzell/,Mixed Parking,Free car park for cars and buses. Just at the side of the river and only minutes from the village centre.
Germany,Halblech,,Lake,,€0.00,800,47.614006,10.805273,http://ourbumble.com/lofer-to-krugzell/,Mixed Parking,Large grass car park at base of cable car.  Great views over countryside and lake. No restrictions.
Germany,Hausern,,Countryside,"TrashFresh Water",€0.00,812,47.607747,10.710263,http://ourbumble.com/lofer-to-krugzell/,Mixed Parking,"Small church lay by.  On a small incline but flat spots in the middle.  Tarmac with trees for shelter. Next to main road, so can be busy.  Water tap at the gate entrance."
Germany,Krugzell,,Countryside,,€0.00,640,47.793868,10.259379,http://ourbumble.com/lofer-to-krugzell/,Wild,"Quiet lay by beside the river.  Tarmac with slight tilt, so need chocs.  Nice views over hills will alps in background."
Germany,Schwedeneck,,Beach,,€0.00,55,54.481912,10.119813,http://ourbumble.com/schloss-and-seaweed/,Mixed Parking,"Parking area near the beach, restaurant at the bottom of the lane/beach access."
Germany,Damp,,Countryside,,€0.00,2,54.578204,10.01705,http://ourbumble.com/schloss-and-seaweed/,Mixed Parking,"Park and ride car park is free but if you need services then right at the end a camper parking at €14 plus electric, water, showers."
Germany,Raesfeld,,Village/Town/City,"Fresh WaterGrey WaterBlack WaterTrashToiletsElectric",€8.00,39,51.765465,6.830634,http://ourbumble.com/splendid-schloss-raesfeld/,Rest Area & Services,"Camper parking facility with dedicated bays and hard surface. €8 for 24 hours, €1 for 12h of electricity and €1 for 100 litres water. Grey and black facilities as well as public toilet block.Great location as set within grounds of Raesfeld schloss."
Germany,Raesfeld,,Village/Town/City,,€0.00,57,51.761403,6.826678,http://ourbumble.com/splendid-schloss-raesfeld/,Mixed Parking,Parking next to Raesfeld Schloss. Free level car park also next to the wooded area. Nice spot for walks and visit the Schloss. Full facilities at the aire in the town.
Germany,Ludinghausen,Burg vischering,Village/Town/City,Trash,€0.00,49,51.777597,7.440355,http://ourbumble.com/sunshine-in-schloss-land/,Mixed Parking,Big flat Tarmac car park. Set in the grounds of the castle and free to park. Only 5 minutes walk to the centre of the village.
Germany,Visbek,Rathause,Village/Town/City,,€0.00,41,52.836115,8.31353,http://ourbumble.com/the-hunt-for-the-stone-age-graves/,Mixed Parking,"Small, quiet car park located behind the rathause (townhall). Level, sold ground. Off main road, so no road noise or passing people.  Tap located at the side of the town hall."
Germany,Bad Schachen,,,,€0.00,404,47.563719,9.665825,http://ourbumble.com/,Mixed Parking,Parking at entrance is public but further along is part of restaurant 
Germany,Vogt,,,,€0.00,680,47.776086,9.767604,http://ourbumble.com/,Mixed Parking,Behind townhall
Germany,Wolfegg,,Village/Town/City,"Fresh WaterGrey WaterBlack WaterTrashWi-FiElectricToilets",€0.00,676,47.8159,9.797858,http://ourbumble.com/,Rest Area & Services,"Water is 10c for 8 litres or €1 for 80 litres, electric is on 2 posts and is about 50c per kw, free wifi at the tourist office in town which is 2 minutes away."
Germany,Bad Waldsee,Hymer,,,€0.00,601,47.927745,9.758131,http://ourbumble.com/,Mixed Parking,Service centre with free parking and electric. Toilet facilities and water across road at garage
Germany,Bad Waldsee,,,"Fresh WaterGrey WaterBlack WaterTrashElectric",€5.00,597,47.914167,9.760707,http://ourbumble.com/,Mixed Parking & Services,Located near the spa. Fee is €5 plus €2 pp plus electric and water
Germany,Baach,,,,€0.00,542,48.233821,9.46147,http://ourbumble.com/,Mixed Parking,
Germany,,,,,€0.00,788,48.404897,9.256712,http://ourbumble.com/,Mixed Parking,Car park for the castle
Germany,Nurtingrt,,Village/Town/City,"Fresh WaterGrey WaterBlack WaterTrashElectric",€5.00,276,48.636406,9.330619,http://ourbumble.com/,Rest Area,Water is €1 for 50 litres
Germany,Esslingen,Burg Platz,Village/Town/City,Trash,€0.00,311,48.747271,9.310812,http://ourbumble.com/,Rest Area,Large car park with dedicated parking for 3 motorhomes
Germany,Ludwigsburg,,Village/Town/City,"Fresh WaterGrey WaterBlack WaterTrash",€10.00,292,48.894165,9.19696,http://ourbumble.com/,Rest Area & Services,"Schloss car park with dedicated mh parking, Electric is 50c per kw and water 1c per litre."
Germany,Maulbronn,,,,€0.00,250,48.999156,8.805669,http://ourbumble.com/,Rest Area & Services,"Dedicated mh parking spot with electric, toilet facilities. Max stay 48 hours, Electric & water token available from side of the toilet block costing 1€ for 2kw & 100 litres."
Germany,,Bacharach,Lake,"Fresh WaterGrey WaterBlack WaterTrashElectric",€5.00,76,50.055113,7.772008,http://ourbumble.com/,Rest Area & Services,€5 for parking plus €2.50 for electric
Germany,Goar,,,,€0.00,74,50.144228,7.721437,http://ourbumble.com/,Campsite,Lolibrick
Germany,Alken,,,,€0.00,79,50.251135,7.445801,http://ourbumble.com/,Rest Area,Free parking for mh. Max stay 28 hours. Suitable for up to 6 motorhomes
Germany,Broadenbach,,,,€0.00,73,50.227452,7.445376,http://ourbumble.com/,Mixed Parking,
Germany,,,,,€0.00,73,50.227452,7.445376,http://ourbumble.com/,Mixed Parking,
Germany,,,,,€0.00,81,50.16899,7.272113,http://ourbumble.com/,Mixed Parking,
Germany,,,,,€0.00,81,50.16899,7.272113,http://ourbumble.com/,Mixed Parking,
Germany,,,,,€0.00,85,50.154917,7.16862,http://ourbumble.com/,Mixed Parking,Night parking not permitted
Germany,,,,,€0.00,83,50.140497,7.170022,http://ourbumble.com/,Mixed Parking,Parking fee during day
Germany,,,,,€0.00,83,50.138787,7.181828,http://ourbumble.com/,Mixed Parking,
Germany,Ernst,,,,€0.00,85,50.143316,7.219437,http://ourbumble.com/,Mixed Parking,
Germany,,,,,€0.00,85,50.143316,7.219437,http://ourbumble.com/,Mixed Parking,
Germany,Ernst,,,,€9.00,85,50.143316,7.219437,http://ourbumble.com/,Rest Area & Services,Behind wine house
Germany,,,,,€0.00,84,50.117571,7.232255,http://ourbumble.com/,Mixed Parking,
Germany,,,,,€0.00,91,50.112595,7.21036,http://ourbumble.com/,Mixed Parking,
Germany,,,,,€0.00,96,50.093194,7.159895,http://ourbumble.com/,Mixed Parking,
Germany,Eller,,,,€5.00,96,50.099684,7.143584,http://ourbumble.com/,Rest Area & Services,
Germany,Bremm,,,,€0.00,97,50.104444,7.117579,http://ourbumble.com/,Mixed Parking,
Germany,,,,,€0.00,92,50.08052,7.131162,http://ourbumble.com/,Mixed Parking,
Germany,,,,,€0.00,94,50.054106,7.127293,http://ourbumble.com/,Mixed Parking,
Germany,,,,,€0.00,99,50.040577,7.165488,http://ourbumble.com/,Mixed Parking,
Germany,Enkirch,,,,€0.00,103,49.98403,7.121504,http://ourbumble.com/,Mixed Parking,
Germany,,,,,€0.00,101,49.94946,7.112078,http://ourbumble.com/,Mixed Parking,
Germany,Krrov,,,,€0.00,106,49.979586,7.089399,http://ourbumble.com/,Mixed Parking,
Germany,Kinheim,,,,€0.00,106,49.97221,7.057183,http://ourbumble.com/,Rest Area & Services,
Germany,,,,,€0.00,113,49.973226,7.05333,http://ourbumble.com/,Mixed Parking,
Germany,,,,,€0.00,101,49.978934,7.007627,http://ourbumble.com/,Mixed Parking,
Germany,,,,,€0.00,130,49.905299,6.977685,http://ourbumble.com/,Mixed Parking,
Germany,Mosel,,,,€0.00,130,49.905299,6.977685,http://ourbumble.com/,Rest Area & Services,
Germany,Filzen,,,,€9.00,126,49.905989,6.976883,http://ourbumble.com/,Rest Area & Services,Good pitches and price includes electric and water. Small supermarket in village
Germany,,,,,€0.00,291,49.910394,6.900694,http://ourbumble.com/,Mixed Parking,
Germany,Trier,Treviris,,,€10.60,143,49.741671,6.625037,http://ourbumble.com/,Rest Area & Services,"Water & electric extra. 70c per kw, 10c per 10 litres. Parking charged by the hour and overnight so €10.60 for 24 hours."
Greece,Molos,,Beach,"ToiletsTrashFresh WaterShowers",€0.00,2,38.833475,22.652593,http://ourbumble.com/ancient-world-delphi/,Wild,Gravel area next to beach.
Greece,Thermoplyom,,,"Fresh WaterGrey WaterTrash",€0.00,32,38.796398,22.536036,http://ourbumble.com/ancient-world-delphi/,Mixed Parking & Services,"The hot gates monument, water available at one end of the monument."
Greece,,,,,€0.00,511,38.777286,22.460035,http://ourbumble.com/ancient-world-delphi/,Wild,"Gravel lay by, good as lunch stop with super views."
Greece,Delphi,Museum,,,€0.00,582,38.480227,22.50003,http://ourbumble.com/ancient-world-delphi/,Mixed Parking,"Parking at museum next to main road, not idea and very busy in the day, close to town centre though."
Greece,Delphi,Apollo,Countryside,"Fresh WaterGrey WaterBlack WaterToiletsShowersTrashElectricWi-Fi",€19.00,481,38.48271,22.475638,http://ourbumble.com/ancient-world-delphi/,Campsite,Good campsite with stunning views.
Greece,Chalkoutsi,,Harbour,,€0.00,2,38.332342,23.736165,http://ourbumble.com/autumn-on-the-remote-coves-of-attica-peninsula-greece/,Wild,"Shingly beach to right, harbour to left"
Greece,Oropós,Amphiaraion sanctuary,Countryside,,€0.00,184,38.289692,23.843421,http://ourbumble.com/autumn-on-the-remote-coves-of-attica-peninsula-greece/,Mixed Parking,Limited parking but OK if you get there when it's closed and have to wait.
Greece,,,,,€0.00,17,38.289184,23.930098,http://ourbumble.com/autumn-on-the-remote-coves-of-attica-peninsula-greece/,Wild,On street parking next to little beach. Would be very busy in summer.
Greece,Limiona,,Beach,,€0.00,7,38.28781,23.936653,http://ourbumble.com/autumn-on-the-remote-coves-of-attica-peninsula-greece/,Wild,On street parking next to little beach. Would be very busy in summer.
Greece,Parallia Varnava,,Beach,,€0.00,-9,38.26289,23.977789,http://ourbumble.com/autumn-on-the-remote-coves-of-attica-peninsula-greece/,Wild,On street parking next to pebble beach. Would be busy in summer.
Greece,Nefplio,,Harbour,Trash,€0.00,-6,37.570822,22.800865,http://ourbumble.com/beginning-modern-greece-nefplion/,Mixed Parking,Large parking area on port and marina
Greece,Nefplio,,Beach,,€0.00,1,37.5904,22.765697,http://ourbumble.com/beginning-modern-greece-nefplion/,Wild,Parking on the beach
Greece,Nea Kios,,,,€0.00,1,37.584242,22.744927,http://ourbumble.com/beginning-modern-greece-nefplion/,Mixed Parking,Car park close to beach
Greece,Kiveriou,,Beach,"Fresh WaterTrash",€0.00,-5,37.527674,22.731542,http://ourbumble.com/beginning-modern-greece-nefplion/,Wild,"Small pebble area next to marina, water available on roadside."
Greece,Kivario,,,"Fresh WaterGrey WaterBlack WaterTrashToilets",€0.00,13,37.524915,22.72539,http://ourbumble.com/beginning-modern-greece-nefplion/,Service Only,"Large church has fresh water, huge drain and communal toilet facilities under the main entrance"
Greece,,,Countryside,Fresh Water,€0.00,71,37.461725,22.746913,http://ourbumble.com/beginning-modern-greece-nefplion/,Mixed Parking,"Rest area beside main road, great views"
Greece,Astros,,Beach,"Fresh WaterToiletsTrash",€0.00,4,37.445002,22.747972,http://ourbumble.com/beginning-modern-greece-nefplion/,Wild,Parking by the beach
Greece,Astros,,Beach,"Fresh WaterTrash",€0.00,17,37.406332,22.756618,http://ourbumble.com/beginning-modern-greece-nefplion/,Wild,
Greece,,,Beach,,€0.00,22,37.287922,22.840069,http://ourbumble.com/beginning-modern-greece-nefplion/,Mixed Parking,Rest area with great views
Greece,Poulithra,,Harbour,,€0.00,1,37.115584,22.902673,http://ourbumble.com/beginning-modern-greece-nefplion/,Mixed Parking,Parking at a small harbour
Greece,Mari,,Countryside,,€0.00,609,37.030919,22.827534,http://ourbumble.com/beginning-modern-greece-nefplion/,Mixed Parking,"Small car park by a church, not ideal but OK to break a journey."
Greece,Kallikrateia,,Harbour,,€0.00,5,40.24741,23.257158,http://ourbumble.com/caught-rare-meteorological-phenomenon/,Wild,Parking right on the beach.
Greece,Kallikrateia,,Beach,,€0.00,20,40.320708,23.031933,http://ourbumble.com/caught-rare-meteorological-phenomenon/,Wild,Grassy area next to beach
Greece,Thesilonika,,Village/Town/City,"Fresh WaterGrey WaterBlack WaterTrashToiletsElectricWi-Fi",€0.00,27,40.502606,22.971196,http://ourbumble.com/caught-rare-meteorological-phenomenon/,Rest Area & Services,"Free overnight parking at camping shop. Open 9-9 M-F, 9-5 S and shut Sunday"
Greece,Vergina,,Village/Town/City,,€0.00,123,40.484291,22.322508,http://ourbumble.com/footsteps-alexander-great/,Mixed Parking,"Parking for archaeological site. Kiosk at the entrance but clearly shut down, we assume for winter? "
Greece,Agioi Theodoroi,,Countryside,Trash,€0.00,785,39.984732,21.502446,http://ourbumble.com/for-our-eyes-only-meteora/,Wild,"On way to Meteora, On street parking, Only used because it was late, very quiet though."
Greece,Meteora,,Countryside,,€0.00,546,39.725509,21.632287,http://ourbumble.com/for-our-eyes-only-meteora/,Wild,Fantastic spot and views. Water available from the monastery.
Greece,Amfipoli,,,"Grey WaterFresh WaterTrashShowers",€0.00,25,40.775702,23.805293,http://ourbumble.com/greece-shore-thing/,Wild,Parking on the beach Including fresh water and shower.
Greece,,,Beach,Fresh Water,€0.00,-0,40.764127,23.77289,http://ourbumble.com/greece-shore-thing/,Wild,Parking beside the beach
Greece,Agios Georgios,,Beach,"Fresh WaterTrash",€0.00,12,40.757012,23.756207,http://ourbumble.com/greece-shore-thing/,Wild,Small sandy harbour with taverna.
Greece,,Camping Achilles,,,€0.00,11,40.757571,23.750941,http://ourbumble.com/greece-shore-thing/,Campsite,"We have not used it just drove by, cost unknown."
Greece,,,,,€0.00,13,40.75586,23.738024,http://ourbumble.com/greece-shore-thing/,Wild,"Beach parking, bit scruffy."
Greece,,,Beach,"TrashToiletsShowersFresh Water",€0.00,-8,40.747033,23.727895,http://ourbumble.com/greece-shore-thing/,Wild,Access to beach area.
Greece,,Asprovalta Camping,,,€0.00,-11,40.735689,23.716196,http://ourbumble.com/greece-shore-thing/,Campsite,Not used so no comments or price.
Greece,Stavros,,,,€0.00,20,40.712397,23.704576,http://ourbumble.com/greece-shore-thing/,Wild,Parking close to beach.
Greece,Stavros,,,"TrashFresh Water",€0.00,1,40.665423,23.701824,http://ourbumble.com/greece-shore-thing/,Mixed Parking,Parking close to beach.
Greece,Stavros,,,,€0.00,13,40.66368,23.705069,http://ourbumble.com/greece-shore-thing/,Wild,"Recreation area close to beach, some shade too."
Greece,Olympiada,,,Trash,€0.00,8,40.591226,23.787952,http://ourbumble.com/greece-shore-thing/,Mixed Parking,Small harbour side gravel parking
Greece,Olympiada,,Beach,"TrashShowersToilets",€0.00,1,40.585631,23.79614,http://ourbumble.com/greece-shore-thing/,Wild,"Just outside Olympiada, beach side parking"
Greece,,,,,€0.00,0,40.585807,23.795723,http://ourbumble.com/greece-shore-thing/,Wild,"Some areas soft sand, others hard sand. We got stuck in sand!"
Greece,,,Beach,,€0.00,7,40.585788,23.795835,http://ourbumble.com/greece-shore-thing/,Wild,
Greece,,,,,€0.00,259,40.521574,23.823212,http://ourbumble.com/greece-shore-thing/,Wild,
Greece,Aristotelis,Sculpture Beach,Beach,,€0.00,11,40.417749,23.860348,http://ourbumble.com/greece-shore-thing/,Wild,Remote location with odd weird rock
Greece,Ierissos,,,,€0.00,-4,40.410486,23.865138,http://ourbumble.com/greece-shore-thing/,Wild,
Greece,Ierissos,,,,€0.00,15,40.401068,23.877382,http://ourbumble.com/greece-shore-thing/,Mixed Parking,
Greece,Aristotelis,,Beach,,€0.00,37,40.398535,23.883995,http://ourbumble.com/greece-shore-thing/,Wild,
Greece,,,,,€0.00,207,40.387235,23.815692,http://ourbumble.com/greece-shore-thing/,Wild,Stopping point off the main road if your passing. OK for lunch with good views
Greece,Metagitsa,,Beach,,€0.00,14,40.303645,23.694301,http://ourbumble.com/greece-shore-thing/,Wild,Parking next to the beach.
Greece,Ormos Panagias,,Harbour,"TrashFresh Water",€0.00,76,40.235312,23.732057,http://ourbumble.com/greece-shore-thing/,Wild,"Parking on a small marina, Fresh fish available and a few tavernas close by."
Greece,Livrochio,,Beach,,€0.00,-6,40.248161,23.722852,http://ourbumble.com/greece-shore-thing/,Wild,"Secluded bay, water available at Ormos Panagias"
Greece,Livorchio,,Beach,Trash,€0.00,7,40.248335,23.722722,http://ourbumble.com/greece-shore-thing/,Wild,"On beach. Very quiet, water available at Ormos Panagias"
Greece,,,,,€0.00,782,37.082503,22.311035,http://ourbumble.com/hell-autumn-ride-langada-pass/,Mixed Parking,Good place to park up and walk to caves
Greece,Mikri Mantineia,,,,€0.00,-10,36.980156,22.150036,http://ourbumble.com/hell-autumn-ride-langada-pass/,Wild,Straight on beach
Greece,Kitries,,Beach,"Fresh WaterTrashToiletsShowers",€0.00,-3,36.933811,22.144025,http://ourbumble.com/hell-autumn-ride-langada-pass/,Wild,"Small gravel road leading down to beach. Sheltered with trees. Small taverna a few meters away, which closes in winter"
Greece,Santova,,Beach,"Fresh WaterTrashShowers",€0.00,-4,36.94932,22.143393,http://ourbumble.com/hell-autumn-ride-langada-pass/,Wild,Quiet stretch of beach. Pebble and sand. A couple of tavernas. Parking bays on side of road with no restrictions
Greece,Akrogialio,,Beach,Trash,€0.00,-1,36.954065,22.14451,http://ourbumble.com/hell-autumn-ride-langada-pass/,Wild,Pebble cove 
Greece,Kalamata,Yachting club,Harbour,"Fresh WaterGrey WaterBlack WaterTrashToiletsElectricShowers",€0.00,-7,37.024198,22.102232,http://ourbumble.com/hell-autumn-ride-langada-pass/,Mixed Parking & Services,"Marina / Yachting  club. Quiet parking space behind skippers restaurant. Toilets, shower and laundry service. Laundry tokens from marina office or security cabin. Electric points dotted all around site for use by boat owners...we think you can use if you pay but how much, not sure.  Toilets are locked after 6pm but ladies generally left open"
Greece,Nikiti,,Harbour,Fresh Water,€0.00,28,40.218714,23.661807,http://ourbumble.com/hoggin-coast-sithonia/,Mixed Parking,"Great spot on the marina, water available at the begging of the town"
Greece,Spatheis,,,,€0.00,-2,40.17676,23.715566,http://ourbumble.com/hoggin-coast-sithonia/,Campsite,Right on beach
Greece,Elia Nikitis,Camping Mitari,,,€0.00,32,40.145534,23.73822,http://ourbumble.com/hoggin-coast-sithonia/,Campsite,Not used so no comment or costs.
Greece,Kalogrias,,Beach,,€0.00,29,40.133984,23.752764,http://ourbumble.com/hoggin-coast-sithonia/,Wild,
Greece,,,,,€0.00,6,40.099222,23.775199,http://ourbumble.com/hoggin-coast-sithonia/,Wild,Roadside parking at the beach.
Greece,Marmaras,,Beach,"Fresh WaterTrash",€0.00,7,40.090734,23.791439,http://ourbumble.com/hoggin-coast-sithonia/,Wild,"Tarmac section leading on to beach, water available near the old boat area."
Greece,Marmaras,,Beach,,€0.00,23,40.087316,23.792378,http://ourbumble.com/hoggin-coast-sithonia/,Mixed Parking,Right on beach
Greece,Toroni,,Beach,,€0.00,-4,39.986219,23.90238,http://ourbumble.com/hoggin-coast-sithonia/,Mixed Parking,
Greece,Porto Koufo,,Harbour,"TrashFresh Water",€0.00,-2,39.970785,23.919114,http://ourbumble.com/hoggin-coast-sithonia/,Wild,
Greece,Kalamitsi,,Beach,,€0.00,-7,39.990298,23.98977,http://ourbumble.com/hoggin-coast-sithonia/,Wild,On the beach
Greece,Piraeus,Parkopolis,Village/Town/City,Fresh Water,€13.00,36,37.947403,23.645619,http://ourbumble.com/locked-worlds-oldest-city-athens/,Mixed Parking & Services,"Secure car park in town, owner is very friendly and helpful. Waste water can be emptied in a drain around the corner."
Greece,,,,,€0.00,2,36.728601,23.026423,http://ourbumble.com/most-perfect-tranquil-greek-rock-monemvasia/,Wild,"Great wild spot on the beach, water available from the shower. Archaeological site also behind."
Greece,,,,,€0.00,15,36.705841,23.030892,http://ourbumble.com/most-perfect-tranquil-greek-rock-monemvasia/,Wild,Look out to sea
Greece,Monemvasis,,Beach,"Fresh WaterShowers",€0.00,1,36.688397,23.035567,http://ourbumble.com/most-perfect-tranquil-greek-rock-monemvasia/,Mixed Parking,Small gravel area looking out to sea.
Greece,Monemvasis,,Harbour,"TrashFresh WaterElectricToiletsWi-Fi",€0.00,-4,36.686114,23.039606,http://ourbumble.com/most-perfect-tranquil-greek-rock-monemvasia/,Mixed Parking & Services,Parking on the harbour side. Electric on the street light. Toilets across the road in portaloo
Greece,,,Countryside,"Fresh WaterGrey WaterTrashBlack Water",€0.00,89,36.856877,22.783266,http://ourbumble.com/most-perfect-tranquil-greek-rock-monemvasia/,Service Only,Service station.
Greece,Itea,,Harbour,,€0.00,-13,38.431661,22.41994,http://ourbumble.com/secret-lives-greek-monks-1000-years-history/,Mixed Parking,"Large tarmac car park at the edge of town by a harbour wall, beach around corner."
Greece,Antikyra,,,,€0.00,7,38.377765,22.634968,http://ourbumble.com/secret-lives-greek-monks-1000-years-history/,Mixed Parking,On street parking in pretty little town.
Greece,Distomo,Loukas,,,€0.00,484,38.395414,22.74589,http://ourbumble.com/secret-lives-greek-monks-1000-years-history/,Mixed Parking,"Monastery Loukas. Closest main town is Distomo, but actually Located between small villages of Steiri and Kyriakio."
Greece,Mystras,,Countryside,,€0.00,281,37.07094,22.37958,http://ourbumble.com/secret-spartan-path-mount-taygetos/,Wild,Patch of grass at side of orange groves looking up to mountains
Greece,Mystras,,Countryside,"TrashFresh Water",€0.00,314,37.069575,22.377791,http://ourbumble.com/secret-spartan-path-mount-taygetos/,Mixed Parking,Camera museum. Free but no overnight permitted
Greece,Mystras,Site entrance,Countryside,Trash,€0.00,359,37.076749,22.368951,http://ourbumble.com/secret-spartan-path-mount-taygetos/,Mixed Parking,"Two entrances to the site. This is the first gate, which is mid way up the hill. Flat, small carpark with no restriction"
Greece,Epidavros,,Beach,"Fresh WaterTrash",€0.00,0,37.64126,23.159089,http://ourbumble.com/step-back-time-argolis-peninsula/,Wild,Small pebble cove
Greece,Kalloni,,,,€0.00,8,37.545265,23.303966,http://ourbumble.com/step-back-time-argolis-peninsula/,Wild,Little fishing marina over looking Megalochori headland
Greece,Troizinia,,,,€0.00,9,37.49523,23.454922,http://ourbumble.com/step-back-time-argolis-peninsula/,Wild,Spare land with concrete slip over looking lovely Poros
Greece,Plaka,,Beach,,€0.00,6,37.488398,23.469158,http://ourbumble.com/step-back-time-argolis-peninsula/,Wild,Next to beach
Greece,Pergari,,Beach,,€0.00,4,37.413646,23.454267,http://ourbumble.com/step-back-time-argolis-peninsula/,Wild,Secluded spot looking out to Hydra 
Greece,Pigadi,,Beach,,€0.00,5,37.411285,23.374194,http://ourbumble.com/step-back-time-argolis-peninsula/,Wild,Quiet seafront with taverna and a few rooms
Greece,Ermioni,,Beach,"Fresh WaterElectricTrash",€0.00,5,37.406996,23.270958,http://ourbumble.com/step-back-time-argolis-peninsula/,Wild,Large gravel area next to beach
Greece,Ermioni,,Harbour,,€0.00,5,37.386619,23.247166,http://ourbumble.com/step-back-time-argolis-peninsula/,Mixed Parking,Roadside parking next to quay
Greece,Ermioni,,,,€0.00,10,37.382896,23.248291,http://ourbumble.com/step-back-time-argolis-peninsula/,Mixed Parking,Parking spot near some nice tavernas and next to the boats.
Greece,Porto Cheli,,Harbour,Trash,€0.00,-1,37.326782,23.14382,http://ourbumble.com/step-back-time-argolis-peninsula/,Mixed Parking,Parking area on the harbour.
Greece,Porto Cheli,,Beach,,€0.00,-3,37.336522,23.125451,http://ourbumble.com/step-back-time-argolis-peninsula/,Wild,"Pebble beach, very quiet."
Greece,,,,Fresh Water,€0.00,70,37.364936,23.162363,http://ourbumble.com/step-back-time-argolis-peninsula/,Service Only,Stone Fountain with fresh water.
Greece,,,,,€0.00,2,37.410077,23.129881,http://ourbumble.com/step-back-time-argolis-peninsula/,Wild,Spare land facing the boat yard
Greece,Koilada,,Harbour,"TrashFresh Water",€0.00,-2,37.417354,23.127027,http://ourbumble.com/step-back-time-argolis-peninsula/,Mixed Parking,Small port
Greece,Tolo,,Harbour,,€0.00,13,37.514802,22.856776,http://ourbumble.com/step-back-time-argolis-peninsula/,Mixed Parking,Car park next to marina with fresh water.
Greece,Tolo,,,,€0.00,18,37.528422,22.872681,http://ourbumble.com/step-back-time-argolis-peninsula/,Wild,"Gravel area overlooking the see, lots of campsite close by too."
Greece,Karathonas,,Beach,"TrashFresh WaterToiletsShowers",€0.00,-2,37.542535,22.822946,http://ourbumble.com/step-back-time-argolis-peninsula/,Wild,Fresh water points along the beach with portoloos in summer
Greece,Ancient Korinthos,,Countryside,"Fresh WaterGrey WaterBlack WaterWi-FiElectricShowersToiletsTrash",€10.00,18,37.908339,22.881436,http://ourbumble.com/trick-treat-ancient-corinth/,Rest Area & Services,Family run aire with old chap. Really friendly
Greece,Thraki,Camping Castello,Beach,,€0.00,17,40.125666,23.765733,http://ourbumble.com/,Campsite,Not used so no comment or costs.
Greece,,Armenistis Camping & Bungalows,Beach,"Fresh WaterGrey WaterBlack WaterTrashToiletsShowersElectricWi-Fi",€0.00,-17,40.152272,23.91373,http://ourbumble.com/,Campsite,Not used so no comments.
Greece,,Camping Lacara,,,€0.00,21,40.170188,23.854353,http://ourbumble.com/,Campsite,Not used so no comments.
Greece,,,,"Fresh WaterTrash",€0.00,136,40.210287,23.689168,http://ourbumble.com/,Service Only,Fuel station with lpg & water.
Greece,Olynthus,,,,€0.00,35,40.260395,23.479565,http://ourbumble.com/,Wild,Gravel lay by on the coast road.
Greece,,,,,€0.00,2,40.246163,23.261348,http://ourbumble.com/,Wild,"Parking by the beach, Grass & sand surface."
Greece,,,,,€0.00,727,38.601816,22.377846,http://ourbumble.com/,Service Only,
Greece,Kirra,Avannis Camping,,,€0.00,-1,38.42495,22.4583,http://ourbumble.com/,Campsite,
Greece,,,,"Fresh WaterGrey WaterBlack WaterTrashToilets",€0.00,225,38.367639,23.535613,http://ourbumble.com/,Service Only,Service station with full services
Greece,,,,,€0.00,15,38.321027,23.786198,http://ourbumble.com/,Mixed Parking,
Greece,Kineta,,,,€0.00,16,37.974745,23.238191,http://ourbumble.com/,Wild,Beach side parking
Greece,,,,Trash,€0.00,148,37.710873,23.130837,http://ourbumble.com/,Mixed Parking,Parking area next to monastery.
Greece,,,Beach,"TrashFresh Water",€0.00,-12,37.680145,23.152191,http://ourbumble.com/,Mixed Parking,Parking area next to beach and harbour. Water available in the harbour.
Greece,Nea epidavros,Nea epidavros,Beach,"Fresh WaterGrey WaterBlack WaterTrashToiletsShowersWi-FiElectric",€0.00,-5,37.678661,23.148874,http://ourbumble.com/,Campsite,Not used so no comment
Greece,Tolo,,Beach,,€0.00,1,37.531754,22.890904,http://ourbumble.com/,Campsite,Not used so no comment.
Hungary,Gibart,,,,€0.00,145,48.316222,21.164241,http://ourbumble.com/gypsy-villages-hop-hungary/,Rest Area,
Hungary,Tokai,,,,€0.00,97,48.124631,21.41151,http://ourbumble.com/gypsy-villages-hop-hungary/,Mixed Parking,"Old town parking, Next to main road but quiet at night."
Italy,Lucca,,Village/Town/City,Trash,€6.00,19,43.846017,10.494876,http://ourbumble.com/barga-to-marradi/,Mixed Parking,Large tarmac carpark at the side of the walled city. €0.20 for 1st hour and then€1 per hour after with max €6 for the day. Reasonably quiet and well lit at night
Italy,Pescia,,Village/Town/City,Trash,€0.00,60,43.89838,10.690508,http://ourbumble.com/barga-to-marradi/,Mixed Parking,Flat car park at the side of Lidl.  No limitations and good base for visiting the town of Pescia
Italy,Pistoia,,Village/Town/City,"Fresh WaterGrey WaterBlack WaterTrash",€4.50,68,43.941822,10.915456,http://ourbumble.com/barga-to-marradi/,Rest Area & Services,Small secure aire for €4.50 per day and only 1.5km to town centre
Italy,Pistoia,,Village/Town/City,Trash,€0.00,82,43.943133,10.91476,http://ourbumble.com/barga-to-marradi/,Mixed Parking,"Large car park next to sports facility.  Flat, tarmac and free.  Local bus services to town stop on the car park but only 1.5 km to centre.  Tap to the right."
Italy,Prado,,Village/Town/City,Trash,€0.00,54,43.863706,11.114219,http://ourbumble.com/barga-to-marradi/,Mixed Parking,"Large, flat car park on one of the main roads in to Prado.  No services but Lidl is just across the way."
Italy,Florence,,Village/Town/City,Trash,€0.00,140,43.800364,11.285389,http://ourbumble.com/barga-to-marradi/,Mixed Parking,"On main road, 4 km to Florence and on bus route.  Good views over Florence at sunset.  Pizzeria and handful of shops nearby."
Italy,Borgo San Lorenzo,,Village/Town/City,"Fresh WaterGrey WaterBlack WaterToiletsTrash",€0.00,189,43.957163,11.381406,http://ourbumble.com/barga-to-marradi/,Mixed Parking,"Flat car park over looking park, lake and ducks.  Fresh water tap, drain and public toilets.  Supermarket and all day market on a Friday."
Italy,Marradi,,Countryside,"Black WaterFresh WaterGrey WaterTrashElectric",€0.00,324,44.075738,11.613117,http://ourbumble.com/barga-to-marradi/,Rest Area & Services,Free aire with excellent countryside views.  Usual services plus electricity.  Very quiet.  Only 5 minutes walk in to village with plenty little shops.
Italy,Sestri Levante,,Village/Town/City,Fresh Water,€0.00,12,44.271277,9.40854,http://ourbumble.com/chiavari-to-barga/,Mixed Parking,"Parking all along the road, water is available in the park opposite."
Italy,Castiglione Chiavaresege,,Countryside,Trash,€0.00,546,44.253574,9.536069,http://ourbumble.com/chiavari-to-barga/,Wild,"Small lay by, stunning views out to the coast, very nice small bistro nearby. "
Italy,La Spezia,,Harbour,"Fresh WaterGrey WaterBlack WaterTrashToilets",€5.00,-11,44.103642,9.860147,http://ourbumble.com/chiavari-to-barga/,Rest Area & Services,"Free aire run by the ambulance team. Friendly and helpful and have all the information on visits to Cinque Terre.  All usual facilities and parking spots are on grass and gravel. Suggested donation €5 per day"
Italy,Fivizzano,,Countryside,"Fresh WaterTrash",€0.00,199,44.204942,10.093735,http://ourbumble.com/chiavari-to-barga/,Mixed Parking,Small tarmac car park ideal for stopover.  Two fresh water taps.  Nice views over hillside with mountain peaks in the distance.
Italy,Codiponte,,Countryside,"Fresh WaterTrash",€0.00,213,44.194106,10.15149,http://ourbumble.com/chiavari-to-barga/,Mixed Parking,"Smsll carpark with two nice little hill villages, castle and good mountain backdrop."
Italy,Minucciano,,Countryside,"TrashGrey WaterFresh Water",€0.00,657,44.20023,10.22918,http://ourbumble.com/chiavari-to-barga/,Mixed Parking,Small car park with stunning views over the tuscany hillside.  Flat with access to several water points.  Short stroll and you are in the village but limited supplies.
Italy,Verrucole,,Countryside,"Fresh WaterGrey WaterTrash",€0.00,656,44.180072,10.335669,http://ourbumble.com/chiavari-to-barga/,Mixed Parking,Gravel and grass car park with great views across countryside.  Very small hamlet with one bar.cafe.  Verrucole fortress only a short walk away. 
Italy,Castiglione di Garfagnana,,Village/Town/City,"Fresh WaterToiletsTrashBlack WaterGrey Water",€0.00,515,44.149675,10.411694,http://ourbumble.com/chiavari-to-barga/,Mixed Parking,Good parking spot with lovely views and right in front of the city gate.  Public toilets and fresh water facilities in the corner.  Tarmac but need to find the right spot or get out the chocs for levelling. 
Italy,Bagna,,Village/Town/City,Trash,€0.00,337,44.073762,10.476299,http://ourbumble.com/chiavari-to-barga/,Mixed Parking,Small level and tarmac parking space with overhead trees for shade.  In the nice part of the village with the centre just 5 minutes walk away.
Italy,Bagna,,Village/Town/City,"TrashFresh WaterGrey WaterBlack WaterElectric",€10.00,342,44.072276,10.481592,http://ourbumble.com/chiavari-to-barga/,Rest Area & Services,"Sosta in the town centre, right between the old and new section of town. Cost is €10 but that includes electricity. The machines is broken so no charge at the moment. Level gravel surface with plenty water and electric points. Follow for the hospital parking signs."
Italy,Cesano,,,,€0.00,16,43.747761,13.174375,http://ourbumble.com/how-to-zoom-through-5-countries-in-1-day/,Wild,Small parking bay at side of apartments and straight on beach
Italy,Cesano,,,,€0.00,2,43.74633,13.177029,http://ourbumble.com/how-to-zoom-through-5-countries-in-1-day/,Mixed Parking,Parking bay with immediate access to beach and away from rail tracks
Italy,,,,,€0.00,40,44.519447,11.216694,http://ourbumble.com/how-to-zoom-through-5-countries-in-1-day/,Service Only,
Italy,,,,,€0.00,55,44.961855,9.907337,http://ourbumble.com/how-to-zoom-through-5-countries-in-1-day/,Service Only,
Italy,,,,,€0.00,51,45.143745,9.633436,http://ourbumble.com/how-to-zoom-through-5-countries-in-1-day/,Service Only,
Italy,,,,,€0.00,102,45.3908,9.188361,http://ourbumble.com/how-to-zoom-through-5-countries-in-1-day/,Service Only,
Italy,Angera,,,,€0.00,193,45.771785,8.580563,http://ourbumble.com/how-to-zoom-through-5-countries-in-1-day/,Mixed Parking,
Italy,Monvalle,,,,€0.00,201,45.851236,8.621085,http://ourbumble.com/how-to-zoom-through-5-countries-in-1-day/,Mixed Parking,Quite grass area
Italy,Santa Caterina,,,,€0.00,265,45.877079,8.599566,http://ourbumble.com/how-to-zoom-through-5-countries-in-1-day/,Mixed Parking,Nice car park.
Italy,Germignaga,,Lake,"Fresh WaterGrey WaterBlack WaterTrashToilets",€0.00,196,45.996226,8.724208,http://ourbumble.com/how-to-zoom-through-5-countries-in-1-day/,Rest Area & Services,
Italy,Germignaga,,,,€0.00,204,45.99575,8.724231,http://ourbumble.com/how-to-zoom-through-5-countries-in-1-day/,Mixed Parking,Good place and pleasant town.
Italy,Ravenna,,Village/Town/City,Trash,€0.00,2,44.406862,12.193927,http://ourbumble.com/marradi-to-treviso/,Mixed Parking,Next to sports stadium and only 10 minutes walk to centre.  Very quiet at night.
Italy,Camacchio,,Beach,"Fresh WaterGrey Water",€0.00,-5,44.672208,12.242132,http://ourbumble.com/marradi-to-treviso/,Mixed Parking,Small car park for motorhomes.  5 minutes walk to the beach or canals or cafes.  Water facility but no grey or black facilities
Italy,Camacchio,,Beach,Trash,€0.00,-19,44.672438,12.246744,http://ourbumble.com/marradi-to-treviso/,Mixed Parking,Dedicated parking for motorhomes.  Tariff in place during high season but it is only cheap with maximum €4 for the day.  Right on the beach.
Italy,Camacchio Village,,Village/Town/City,,€0.00,-22,44.690632,12.184898,http://ourbumble.com/marradi-to-treviso/,Wild,"Grassed area at the side of the river.  Nice, clean and quiet and only 5 minutes walk to village.  Coop at the end of the road."
Italy,Venice,Camping Venezia,Village/Town/City,"Fresh WaterGrey WaterBlack WaterTrashToiletsShowersElectricWi-Fi",€18.00,-2,45.480424,12.274968,http://ourbumble.com/marradi-to-treviso/,Campsite,"Superb little campsite, close to Venice via bus stop 300m away. Heated pool, full washing facilities and washing machines. Onsite restaurant and bar with reasonable prices. All pitches are sheltered with trees. Price is €30 or €18 with asci card. Includes electricity etc."
Italy,Treviso,,Village/Town/City,Trash,€0.00,34,45.648901,12.240253,http://ourbumble.com/marradi-to-treviso/,Mixed Parking,"Car park next to Conad supermarket, 2km into the town centre, quiet at night. Also parking on the supermarket carpark opposite."
Italy,Ventimiglia,,,Trash,€0.00,20,43.7936,7.602094,http://ourbumble.com/saint-paul-du-vence-to-santo-stefano-la-mare/,Mixed Parking,"Large car park on the border with France, free except on Fridays. 2mins to the stoney beach, camping bungalows behind. Seems quite a popular spot with campers but plenty space."
Italy,Santo Stefano la Mare,,Beach,Trash,€10.00,6,43.837071,7.905704,http://ourbumble.com/saint-paul-du-vence-to-santo-stefano-la-mare/,Mixed Parking,"Car park located next to the port and over looking the ocean, €1.50 per hour or €10 for the day until 8am."
Italy,Imperia,,Village/Town/City,,€0.00,-15,43.88379,8.02724,http://ourbumble.com/santo-stefano-la-mare-to-chiavari/,Mixed Parking,"Small dead end street, so restricted traffic flow.  Located on the west side of the river at the side of the marina.  Flat, level tarmac surface."
Italy,Imperia,,Harbour,,€0.00,13,43.885268,8.028523,http://ourbumble.com/santo-stefano-la-mare-to-chiavari/,Mixed Parking,On street parking plus parking in little bays just off the road.  Quiet parking spot as off the main road and at the side of the marina.  Historic town of Imperia just 5 minutes stroll.
Italy,Borghetto Santo Spirito,,Village/Town/City,Trash,€0.00,27,44.113324,8.231655,http://ourbumble.com/santo-stefano-la-mare-to-chiavari/,Mixed Parking,"Residential parking space.  Flat, tarmac and just off the main road, so reasonably quiet.  Good spot sleepover spot but no attractions nearby"
Italy,Toirano,,Countryside,"Fresh WaterTrashToiletsWi-Fi",€0.00,140,44.135389,8.200452,http://ourbumble.com/santo-stefano-la-mare-to-chiavari/,Mixed Parking,Tarmac car park for visitors to cave.  Free to use during opening times and provides great views around surrounding landscape.  Fresh water taps all around edge of car park.
Italy,Toirano,,Village/Town/City,"Fresh WaterTrash",€0.00,48,44.124709,8.210192,http://ourbumble.com/santo-stefano-la-mare-to-chiavari/,Mixed Parking,"Most of the town has no motorhome parking but this little car park just at the side of the church permits campers.  If parked in the corner you get a little patio, lawned area and your own tree. Nice and quiet."
Italy,Finale Ligure,,Beach,Trash,€0.00,9,44.178676,8.374429,http://ourbumble.com/santo-stefano-la-mare-to-chiavari/,Mixed Parking,Flat tarmac road with views out to see.  Good views but beach access is limited and main road is busy.
Italy,Savona,,Harbour,Trash,€0.00,5,44.307823,8.484882,http://ourbumble.com/santo-stefano-la-mare-to-chiavari/,Wild,"East side of Savona near to all the historical sites and the marina.  At night, quiet with only handful of passing cars and feels safe.  The west side of town near the port area feels less safe and rather run down."
Italy,Arenzano,,Village/Town/City,Trash,€0.00,32,44.401431,8.678094,http://ourbumble.com/santo-stefano-la-mare-to-chiavari/,Mixed Parking,Small community car park in quiet area.  Good for stopping on way to Genoa but not much else.
Italy,Chiavari,,,,€0.00,148,44.330427,9.288245,http://ourbumble.com/santo-stefano-la-mare-to-chiavari/,Mixed Parking,"Lay by beside the main road, good spot for overnight with great view across the bay."
Italy,Aquileia,,Village/Town/City,"Fresh WaterBlack WaterTrashToilets",€10.00,-1,45.765737,13.369828,http://ourbumble.com/treviso-to-trieste/,Rest Area & Services,Good size aire for visiting town but expensive at €10 per day when free parking in and and around town.
Italy,Aquileia,,Village/Town/City,Trash,€0.00,5,45.763432,13.36696,http://ourbumble.com/treviso-to-trieste/,Mixed Parking,"Municipal parking just 2 minutes from the aire with limitations and set amongst pruned hedges and trees.  Flat and quiet. You can use the aire services near by for black, grey and fresh for free. (Image of Aire)"
Italy,Grado,,Village/Town/City,Trash,€0.00,1,45.681172,13.388409,http://ourbumble.com/treviso-to-trieste/,Wild,"Grass embankment located right on the side of the canal.  Great views over boats, sea and town."
Italy,Grado,,Village/Town/City,"Fresh WaterGrey WaterBlack WaterTrashElectric",€16.00,4,45.681722,13.412031,http://ourbumble.com/treviso-to-trieste/,Rest Area & Services,Camper parking at rear of town.  Aire on either left of the road s barriered with usual camper services.clean and tidy
Italy,Grado,,Village/Town/City,Trash,€4.00,10,45.681754,13.412024,http://ourbumble.com/treviso-to-trieste/,Mixed Parking,Camper parking adjacent to the aire.  No barrier and no services but parking permitted.
Italy,Miramare,,Beach,Trash,€0.00,4,45.700987,13.722193,http://ourbumble.com/treviso-to-trieste/,Mixed Parking,Flat parking space right on sea front and close to castle.  No restrictions 
Italy,Trieste,,Harbour,"TrashFresh Water",€0.00,-7,45.682174,13.751221,http://ourbumble.com/treviso-to-trieste/,Mixed Parking,Flat car parking with spaces for campers.  Free from 7 until 9.  States no overnight parking but most Italian campers ignore.  Nice quiet spot with marina.  To right Miramare castle and left Trieste city.
Italy,Udine,,Village/Town/City,,€0.00,106,46.063323,13.219042,http://ourbumble.com/,Mixed Parking,Small car park.  Tarmac and off main road.  5 minutes walk to the park and 10 minutes to the city
Latvia,Araisi,,,,€0.00,124,57.249958,25.280721,http://ourbumble.com/black-swan-gauja-national-park/,Mixed Parking,Museum carpark. €4 to enter castle ruins and restored huts. Free to park
Latvia,Turaida,,,,€0.00,73,57.065415,24.400646,http://ourbumble.com/garden-god-thur-turaida/,Mixed Parking,Good for overnight as quiet and off main road. Space for half dozen vans
Latvia,Turaida,,,,€3.50,85,57.186828,24.844531,http://ourbumble.com/garden-god-thur-turaida/,Mixed Parking,"Estate car park, free overnight you pay for the daytime to one of the attendents."
Latvia,Riga,Riverside Camping,,"Fresh WaterGrey WaterBlack WaterToiletsTrashShowersElectricWi-Fi",€0.00,-8,56.965159,24.08189,http://ourbumble.com/garden-god-thur-turaida/,Campsite,"Simple aire with showers, toilets, washing machine and service. Basic €8 for motorhome plus €2.50 per adult plus €3 for electric"
Latvia,Ainazi,,Countryside,,€0.00,-20,57.866888,24.356476,http://ourbumble.com/riding-the-baltic-storms-roads-cesis/,Mixed Parking,Mixed parking area.
Latvia,,,,,€0.00,0,57.622746,24.386412,http://ourbumble.com/riding-the-baltic-storms-roads-cesis/,Rest Area,Car park beside the beach next to main road.
Latvia,Limbazi,,,,€0.00,59,57.514591,24.715341,http://ourbumble.com/riding-the-baltic-storms-roads-cesis/,Mixed Parking,Church and town parking.
Latvia,Cesis,,,,€0.00,111,57.314985,25.278691,http://ourbumble.com/riding-the-baltic-storms-roads-cesis/,Mixed Parking,Big car park no restriction
Latvia,Cesis,,,,€0.00,101,57.314228,25.281092,http://ourbumble.com/riding-the-baltic-storms-roads-cesis/,Mixed Parking & Services,Paved car park with toilet and fresh water facilities
Latvia,Rundale,Rundale hall,,,€0.00,22,56.415323,24.031847,http://ourbumble.com/rough-ride-rundale-palace/,Mixed Parking,Car park for car and separate one for coaches. Coaches park is much better - tarmac
Latvia, Siguldas pilseta,,,,€0.00,85,57.155526,24.854242,http://ourbumble.com/,Mixed Parking,Free car park opposite a park area.
Latvia, Siguldas pilseta,,,,€0.00,24,57.176102,24.846162,http://ourbumble.com/,Mixed Parking,Tarmac car park
Lithuania,Kaunas,Kaunas Camping,,,,44,54.93426,23.918432,http://kaunascamping.eu/,Campsite,
Lithuania,Trakai,,,,€0.00,151,54.637943,24.933447,http://ourbumble.com/fairytale-castle-charming-capital-vilnius/,Wild,"Off main road, behind building and over looking lake"
Lithuania,Siauliai,Hill of crosses,,,€2.90,108,56.014495,23.408854,http://ourbumble.com/hill-crosses-lithuania/,Mixed Parking,€2.90 for 24 hours
Lithuania,Siauliai,,,,€0.00,170,55.932461,23.319407,http://ourbumble.com/hill-crosses-lithuania/,Mixed Parking,Cathedral parking
Lithuania,Tytuvenai,Tytuvenai Monastery,,,€0.00,129,55.597712,23.201785,http://ourbumble.com/pilgrim-route-beautiful-tytuvenai-monastery/,Mixed Parking,Monastery car park
Lithuania,Kaunas,Kaunas City Camping,Village/Town/City,"Fresh WaterGrey WaterBlack WaterTrashToiletsShowersElectricWi-Fi",€18.00,32,54.934926,23.917061,http://ourbumble.com/wedding-capital-baltics-kaunas/,Campsite,Good little camp ground given location. Bit nosey from nearby motorway. Small pool and sunlounge area
Lithuania,Grutas ,Grutas Park,,,€0.00,109,54.024689,24.079531,http://ourbumble.com/,Mixed Parking,Free to park but signs says no overnight however the security guard did say we could stay over for €6
Netherlands,Vaals,,Village/Town/City,,€0.00,,50.77715,6.01469,http://ourbumble.com/cologne-to-uk/,Mixed Parking,Parking area next to a sports centre and industrial estate. Quite at night and close to cente.
Norway,North Cape,Knivskjellodden,Countryside,Trash,€0.00,,71.12195,25.388355,http://ourbumble.com/1st-dachshund-twins-knivskjellodden/,Mixed Parking,Car park for hike to official north cape.
Norway,Rana,Polarsirkelseneret,Countryside,Trash,€0.00,667,66.551772,15.321407,http://ourbumble.com/66-5on-the-arctic-circle-we-made-it/,Mixed Parking,Large carpark at arctic circle passing point.
Norway,Bodo,Bodo ferry,Harbour,"ToiletsTrash",€0.00,2,67.288376,14.39694,http://ourbumble.com/66-5on-the-arctic-circle-we-made-it/,Mixed Parking,Car park for ferry terminal but it is free and they dont mind you waiting
Norway,Gratangsbotn,,Harbour,,€0.00,,68.66231,17.76332,http://ourbumble.com/a-jurassic-landscape/,Mixed Parking,"Car park near a hotel just off the main road, great views over the valley below."
Norway,Malselv,,,"Fresh WaterGrey WaterBlack WaterTrashToilets",€0.00,,69.14048,18.60155,http://ourbumble.com/a-jurassic-landscape/,Rest Area & Services,Picnic area with tommy station and superb salmon fishing.
Norway,Balfjord,,,,€0.00,,69.14368,19.05217,http://ourbumble.com/a-jurassic-landscape/,Mixed Parking,Sami shop beside the main road
Norway,Storfjord,,,"Fresh WaterGrey WaterBlack WaterTrashToilets",€0.00,,69.27231,19.93364,http://ourbumble.com/a-jurassic-landscape/,Rest Area & Services,"Parking area next to lake, Popular stopping area with services."
Norway,Trondheim,,Village/Town/City,Trash,€25.00,-2,63.425873,10.382041,http://ourbumble.com/a-trudge-to-trondheim/,Mixed Parking,Dedicated motorhome parking in centre. Mixed motorhome and cars spaces but no services. On street parking available but it is the same price as the car park. Tromdheim very difficult to park and even several kilometres out of town the car parks charge Nok20 per hours.
Norway,Oslo,Holmankollen,Village/Town/City,,€0.00,354,59.965696,10.666798,http://ourbumble.com/another-fine-day-in-oslo/,Mixed Parking,Flat tarmac car park right at the side of the ski run. Great views over the city and fjord. No parking fees and can stay for max 48 hours
Norway,Henningsvaer,,Harbour,,€0.00,3,68.156174,14.208219,http://ourbumble.com/arctic-attire-shorts-t-shirt/,Mixed Parking,Village car park with space for campers and coaches. Gets very busy. Close to village and easy get level on tarmac.
Norway,Fredvang,,Beach,"Fresh WaterGrey WaterTrashToilets",€0.00,4,68.086984,13.172632,http://ourbumble.com/arctic-road/,Mixed Parking,Great picnic spot
Norway,Aspoya,,Lake,"Fresh WaterGrey WaterTrashToilets",€0.00,8,62.989775,7.882381,http://ourbumble.com/atlantic-road/,Mixed Parking,"Quiet spot just 20 minutes out of Kristiansund. Right on waters edge, greet spot."
Norway,Ner Hag,,Countryside,"Fresh WaterGrey WaterBlack WaterTrashToilets",€0.00,109,68.157902,13.6925,http://ourbumble.com/bad-news-in-ballstad/,Mixed Parking,Good Overnight sport with lovely views to mountains and coastline. Small tarmac bays or grass parking. 
Norway,Haukland,,Beach,Trash,€0.00,-8,68.199319,13.529272,http://ourbumble.com/bad-news-in-ballstad/,Mixed Parking,Great wild camping spot right on the beach. No facilities. Parking area consists of hard surface with sand and grass areas. Easy to find flat spot. Top and bottom car park.
Norway,Hannoy,,Harbour,"Fresh WaterBlack WaterGrey WaterTrash",€0.00,-65,67.948413,13.135675,http://ourbumble.com/bird-bombed-on-mid-summers-day/,Mixed Parking,"Small car park with service station. Fres, grey and black water.parking option overlooking fishing boats and small harbours"
Norway,Ramberg,,Countryside,,€0.00,26,68.101443,13.248561,http://ourbumble.com/bird-bombed-on-mid-summers-day/,Wild,Quiet spare land on outskirts of village. Two minutes to the beach and great views over headland. No immediate facilities
Norway,Asen,,Beach,,€0.00,0,70.05416,22.98381,http://ourbumble.com/bored-in-a-bay-with-fish-bones/,Wild,"Superb spot right on the water, Covered BBQ stations also there."
Norway,Svolvaer,,Village/Town/City,,€0.00,23,68.233063,14.531244,http://ourbumble.com/brght-nights-sensor-alert-reach-end-lofoten-islands/,Mixed Parking,Kiwi car park
Norway,Tvinde,Tvindefossen,Countryside,"Black WaterGrey WaterFresh WaterTrashToiletsShowersElectric",€0.00,132,60.725775,6.490293,http://ourbumble.com/chasing-waterfalls-to-vikafjellet-mountain-pass/,Campsite,Didn't actually stop at the campsite but stopped at the waterfall next to site. Brilliant location
Norway,Myrkalen,,Countryside,,€0.00,569,60.892777,6.495689,http://ourbumble.com/chasing-waterfalls-to-vikafjellet-mountain-pass/,Wild,"Middle of Voss Vikafjellet with amazing valley walls, streams, waterfalls and snow. Brilliant wild camping spot. Hotel, cafe and shop about 10km back towards Voss"
Norway,Kafjord,,,,€0.00,,69.51235,20.70126,http://ourbumble.com/clouds-clouds-clouds-oh-baby-rudolph/,Mixed Parking,Popular spot for fishermen too.
Norway,Burfjord,,Lake,,€0.00,,69.94101,22.04641,http://ourbumble.com/clouds-clouds-clouds-oh-baby-rudolph/,Wild,"Area next to the lake, nice spot and can be popular."
Norway,Porsanger,,Beach,"TrashToilets",€0.00,-1,70.668883,25.52885,http://ourbumble.com/dinner-party-arctic-cirlce/,Mixed Parking,"Picnic area on a small pebble bay, Sami shop opposite. "
Norway,Smorfjord,,,,,,70.5381,25.138897,http://ourbumble.com/dinner-party-arctic-cirlce/,,Parking near the water.
Norway,Herand,,Lake,"ToiletsTrashElectricGrey WaterBlack WaterFresh Water",€0.00,19,60.328355,6.338075,http://ourbumble.com/garden-party-on-hardanger-fjord/,Mixed Parking,"Small picnic spot / rest stop with clean toilets, fresh water and electric point. Very quiet and flat. Lovely views out to the fjord and only a small walk to village of Herand where there is a shop, fuel and restaurant. At time of writing, Herand aire was closed due to repairs."
Norway,Eikelandsosen,,Lake,"Black WaterGrey WaterFresh WaterTrashToilets",€0.00,0,60.241068,5.743214,http://ourbumble.com/garden-party-on-hardanger-fjord/,Mixed Parking,Perect little wild camping spot. Lawn with view over fjord and supermarket behind for any bite of shopping.
Norway,Andalsnes,,Village/Town/City,,€0.00,45,62.566649,7.693576,http://ourbumble.com/groundhog-day-midnight-sunset/,Mixed Parking,Dedicated motorhome parking at the side of the fjord and railway station. Clean and flat but nothing special. Opposite side of rail track is specifically for train passengers and if you park near waters edge or slip then potential fine.
Norway,Molde,,Lake,,€0.00,14,62.741333,7.225358,http://ourbumble.com/groundhog-day-midnight-sunset/,Wild,"Great view of 47 peaks over water. Level, grass parking spot with small beach cove."
Norway,Skarvoya,,Lake,,€0.00,13,63.013474,7.330249,http://ourbumble.com/groundhog-day-midnight-sunset/,Mixed Parking,Small lay-by on Atlantic Road. Plenty stoping points but be mindful some are private and charge high fees.
Norway,Son,,Harbour,,€0.00,5,59.518614,10.682924,http://ourbumble.com/hei-norge/,Mixed Parking,Flat tarmac car park overlooking the beautiful bay. 2 minutes walk to the beginning of the village and the marina with shops and cafes.
Norway,Halstad,,,"Fresh WaterTrashToilets",€0.00,,68.777605,16.589564,http://ourbumble.com/hopeful-in-harstad/,Mixed Parking,Halstad ferry car park (not the main ferry point) Just out of town near off an industrial estate. Better than it sounds.
Norway,Holmefjord,,Countryside,"TrashToilets",€0.00,132,60.288824,5.673197,http://ourbumble.com/hunting-for-lpg-bergen/,Wild,"Picnic area just set back of the main road, superb views and many walking route from behind the area. Tarmac level surface with lots of space."
Norway,Bergen,,Village/Town/City,,€0.00,73,60.35133,5.359669,http://ourbumble.com/hunting-for-lpg-bergen/,Wild,"The aire is just down the road but it was full. This was the only spot we could find and it turned out to be quite quiet. Right next to tram if you want to visit Bergen."
Norway,Heddal,,Village/Town/City,"TrashToilets",€0.00,15,59.579286,9.173554,http://ourbumble.com/largest-stave-church-in-heddal/,Mixed Parking,"Church car park with picnic facilities. Cafe on site too.Flat, tarmac with no parking fee but no parking between midnight and 6am.Located next to main road with views of surrounding hills."
Norway,Linde,,Lake,,€0.00,81,59.304199,9.101564,http://ourbumble.com/largest-stave-church-in-heddal/,Wild,Small piece of land mainly used for launching small boats and jet ski. One picnic table.  Loose gravel or turf and level
Norway,Kjeldal,,Lake,"Fresh WaterGrey WaterBlack WaterTrashToiletsElectricShowers",€20.00,89,59.301878,9.043393,http://ourbumble.com/locks-of-telemark-canal/,Campsite,"Small campsite located in the heart of telemark amidst lush trees and rolling hills. You park overlooking one of the many lock systems on the telemark canal.  Great facilities and payment is honest boxNok 200"
Norway,Fjagasund,,Lake,,€0.00,74,59.302778,8.716911,http://ourbumble.com/locks-of-telemark-canal/,Wild,Beautiful location right at the side of the canal/river.  Loose gravel under foot which is quite messy but easy to get level without chocs.  No services
Norway,North Cape,Visitors Centre,,,€50.00,,71.16862,25.78253,http://ourbumble.com/midnight-sun-north-cape/,Mixed Parking,"Nordd Cap visitors centre, price include entrance for 2 adults."
Norway,Repvag,,Countryside,Toilets,€0.00,9,70.66802,25.388514,http://ourbumble.com/midnight-sun-north-cape/,Mixed Parking,Nice quiet spot for stopping on way to nordkapp. Nearest village is repvag.
Norway,Billefjord,,Countryside,,€0.00,14,70.345577,25.076813,http://ourbumble.com/midnight-sun-north-cape/,Wild,Good spot with nice views.
Norway,Drammen,,Countryside,"Fresh WaterGrey WaterBlack WaterTrashToilets",€0.00,12,59.762226,10.06626,http://ourbumble.com/minted-in-kongsberg/,Wild,Great little picnic spot with facilities. Tarmac surface with nice views over countryside and lake. Set back from the roads so quiet.
Norway,Kongsberg,,Village/Town/City,,€0.00,157,59.665616,9.651808,http://ourbumble.com/minted-in-kongsberg/,Mixed Parking,Kongsbergs Museum car park. Loose gravel but flat and over looking river.
Norway,Kviteseid,,Lake,Trash,€0.00,105,59.354713,8.521809,http://ourbumble.com/moose-spotting-in-dalen/,Mixed Parking,Parking space with no restrictions at the historic collection of Norwegian houses. Flat and quiet but no services. Small cafe.
Norway,Vradal,,Lake,"Fresh WaterGrey WaterBlack WaterTrash",€0.00,248,59.325503,8.485389,http://ourbumble.com/moose-spotting-in-dalen/,Rest Area & Services,"Car park / aire located right on the telemark canal. Flat, level and quiet with usual camper services. Small supermarket and petrol station close by."
Norway,Dalen,,Lake,"Fresh WaterTrashToilets",€0.00,60,59.445394,8.021827,http://ourbumble.com/moose-spotting-in-dalen/,Mixed Parking,"Flat, loose gravel car park right on waters edge. Picnic benches and cafes. "
Norway,Valle,,Lake,"Fresh WaterBlack WaterTrashToilets",€0.00,363,59.231845,7.530469,http://ourbumble.com/mountain-pass-to-fjords-valle/,Mixed Parking,Beautiful picnic spot just outside valle
Norway,Sirdal,,Countryside,"Fresh WaterTrashToilets",€0.00,559,58.941368,6.917779,http://ourbumble.com/mountain-pass-to-fjords-valle/,Mixed Parking,"Tourist information car park. Flat and level on either tarmac or loose gravel.  Behind is a museum, farm, nice walk and golf course."
Norway,Smalasen,,Countryside,Trash,€0.00,314,65.101235,13.342812,http://ourbumble.com/moving-north-towards-the-arctic-circle/,Mixed Parking,Nothing fancy but some where to stop and rest for an hour or overnight.
Norway,Symrevegan,,Village/Town/City,,€0.00,94,65.537106,13.409852,http://ourbumble.com/moving-north-towards-the-arctic-circle/,Mixed Parking,School car park. Flat and level and only place we could find that was dry and clean. Good job it was a Saturday.
Norway,Oslo,,Harbour,"Fresh WaterGrey WaterBlack WaterTrashElectric",€0.00,19,59.917775,10.675028,http://ourbumble.com/norways-national-day/,Rest Area & Services,"Excellent spot for a capital city. Located right on the marina with beautiful views. Flat and level. Centre only 3 km away and ski centre 5 km.There is a charge for the aire but the machine is broke and so unable to pay and most people using the marina told us not to bother with fees."
Norway,Alta,,Harbour,,€0.00,7,69.986705,23.306063,http://ourbumble.com/now-waiting-game/,Wild,"Great spot close to the town and airport, probably best place to stay in the area."
Norway,Near Alta,Alta River,Lake,,€0.00,,69.9323,23.262,http://ourbumble.com/now-waiting-game/,Mixed Parking,"Great spot right on the Alta river, about 10 mins to Alta."
Norway,Alta,Alta museum,Countryside,Trash,€0.00,56,69.946271,23.187151,http://ourbumble.com/now-waiting-game/,Mixed Parking,Museum parking area
Norway,Preikestolen,,Countryside,"Fresh WaterGrey WaterBlack WaterTrashToilets",€15.00,2,58.914439,6.037465,http://ourbumble.com/petrifying-preikestolen-pulpits-rock/,Mixed Parking,"Car park for  Preikestolen, Pulpits rock. NOK150"
Norway,Jorpeland,,Harbour,"Fresh WaterGrey WaterBlack WaterTrash",€0.00,11,59.017116,6.044062,http://ourbumble.com/petrifying-preikestolen-pulpits-rock/,Rest Area & Services,Nice flat location next to the marina. 
Norway,A,Lofoten Islands,Harbour,"Fresh WaterTrashToilets",€0.00,10,67.879865,12.977322,http://ourbumble.com/sailing-in-to-the-midnight-sun/,Mixed Parking,Superb little car park with public toilets. Access to village and museum only 5 minutes away or nice walks to coast line and salted cod drying frames. No restrictions on overnight or length of stay
Norway,Olden,,Village/Town/City,,€0.00,9,61.838386,6.80121,http://ourbumble.com/setting-up-camp-at-the-base-of-briksdal-glacier/,Mixed Parking,Small marine car park over looking water. Space for half a dozen cars. Mainly used by local fishermen
Norway,Oldedalen,Melkevoll Bretun,Countryside,"Fresh WaterGrey WaterToiletsShowersElectricWi-Fi",€20.00,108,61.664,6.816657,http://ourbumble.com/setting-up-camp-at-the-base-of-briksdal-glacier/,Campsite,"Small family run campsite with great facilities including, washing, showers and sauna. On site cafe and little shop. BBQ area and plenty places to walk. Located at base of glacier valley - 45 minutes walk to the glacier.Website: www.melkevoll.no  Email: post@melkovall.no  Telephone: 4757873864"
Norway,Stanghelle,,Harbour,Trash,€0.00,-6,60.549765,5.733891,http://ourbumble.com/shot-in-the-bum-bergen/,Mixed Parking,"Level, tarmac car park at the train station. Access to the waters edge and great views over fjord just passed the train station. At time of visit rail track works under way so full of plant and machinery, so stationed on station car park"
Norway,Aga,,Lake,Trash,€0.00,49,60.301864,6.606176,http://ourbumble.com/slopes-of-apple-blossom-sortfjorden/,Mixed Parking,Mixed car park with no restrictions and right on water edge.
Norway,Sinnes,,Lake,,€0.00,673,58.90022,6.778882,http://ourbumble.com/snow-sunshine-siesta/,Mixed Parking,Small tarmac car park with a stunning view but no services.
Norway,Oanes,,Lake,Trash,€0.00,-0,58.91032,6.077744,http://ourbumble.com/snow-sunshine-siesta/,Mixed Parking,No services but right on waters edge with picnic tables and lawned area looking down the fjord. Tarmac and level.
Norway,Halandsosen,,Lake,,€0.00,8,59.347692,6.237133,http://ourbumble.com/sun-sand-salmon/,Wild,Small piece of grassland on jut out of land. Access is hidden a little but located at base on small bridge and opposite fuel station.
Norway,Sand,,Harbour,Trash,€0.00,9,59.483741,6.249967,http://ourbumble.com/sun-sand-salmon/,Wild,Pier
Norway,Nesfelden,,Lake,"Fresh WaterGrey WaterBlack WaterTrashToiletsElectric",€0.00,78,59.644174,6.804176,http://ourbumble.com/sun-sand-salmon/,Rest Area & Services,Great little free aire located right on the side of the fjord
Norway,Vassenden,,Lake,"Fresh WaterGrey WaterBlack WaterTrashToilets",€0.00,195,61.510886,6.156805,http://ourbumble.com/the-big-dipper-ride-to-lake-jolster/,Mixed Parking,Nice flat location next to lake. Mixed parking.
Norway,Valldal,,Harbour,Trash,€0.00,38,62.313778,7.291821,http://ourbumble.com/the-golden-drive-to-troll-wall/,Mixed Parking,Mixed parking which permits overnight stays. Good views out to lake with local supermarket and petrol station behind.
Norway,Trollstigen,,Countryside,"Fresh WaterTrashToilets",€0.00,696,62.590494,7.521183,http://ourbumble.com/the-golden-drive-to-troll-wall/,Mixed Parking,Trollstigen car park and entrance to walk way. No restrictions on overnight but can get busy 
Norway,Stryn,,,Trash,€0.00,48,61.927336,7.018598,http://ourbumble.com/the-highest-fjord-road-in-the-world-dalsnibba/,Mixed Parking,"Layby pick nick area by the main road, would be quite at night and great views across the water towards the mountains. Stryn town is a few km away though."
Norway,Voss,,Lake,,€0.00,61,60.627622,6.403919,http://ourbumble.com/the-old-toe-twitching-road-to-voss/,Wild,No services but excellent wild camping spot just on the outskirts of Voss centre. Right on the water overlooking snow capped hills. Loose gravel but relatively flat.
Norway,Vik,Storehaugteunnelen,Countryside,,€0.00,946,61.013394,6.543114,http://ourbumble.com/the-rise-fall-to-sognefjord/,Wild,Flat layby with stunning views over the mountain tops and valleys below. No facilities but good for lunch or stop over.
Norway,Vik,Hive church,Countryside,,€0.00,80,61.072005,6.58489,http://ourbumble.com/the-rise-fall-to-sognefjord/,Mixed Parking,Car park at church. 
Norway,Vangsnes,,Countryside,,€0.00,72,61.171822,6.640416,http://ourbumble.com/the-rise-fall-to-sognefjord/,Mixed Parking,"Best vantage point for several fjords. Small car park with 270 degree views. Flat, level tarmac but no services. Ferry point 5 minutes away."
Norway,Odda,,Village/Town/City,"TrashToilets",€0.00,39,60.079873,6.528602,http://ourbumble.com/the-waterfalls-of-folgefonna-glacier/,Mixed Parking,"Elevated overwater and view back towards town of Odda. Nice and quiet but waterfalls can be quite loud.Flat, level and clean.Behind are paths and walkways up in to the forest and waterfals"
Norway,Talvik,,Lake,"Fresh WaterGrey WaterBlack WaterTrashToilets",€0.00,,70.0414,22.9527,http://ourbumble.com/turpitz-museum-to-alta-museum/,Wild,"Parking near a pier, full services at the fuel station next door."
Norway,Near Alta,Turpitz museum,Lake,,€0.00,,69.92382,23.02196,http://ourbumble.com/turpitz-museum-to-alta-museum/,Wild,Super spot right on the fjord. Near Turpitz museum and 10 mins from Alta.
Norway,Vestpollen,,,,€0.00,5,68.234871,14.549823,http://ourbumble.com/vin-motorhome/,Mixed Parking,Nice picnic area just outside of the town with great views and level tarmac. Toilet facilities being built at the time of visit.
Norway,Gambogrn,,Lake,Trash,€0.00,13,68.651267,15.864158,http://ourbumble.com/vin-motorhome/,Mixed Parking,Small lay-by beside the main road but with stunning views.
Poland,Auschsitz,Cdim,Village/Town/City,"Fresh WaterGrey WaterTrashToiletsBlack WaterShowersElectricWi-Fi",€20.00,253,50.022948,19.197942,http://ourbumble.com/big-clean-tootle-oswiecim/,Campsite,Hotel grounds. Very nice. Includes electric and services and wifi
Poland,Czechochowa,Jasna Gora,,,€0.00,285,50.810482,19.099232,http://ourbumble.com/black-madonna-queen-poland-jasna-gora/,Mixed Parking,"On road, free"
Poland,Lodz,,,,€0.00,199,51.75794,19.47361,http://ourbumble.com/city-contrast-culture-colour-lodz/,Mixed Parking,Mixed car park at side of park.
Poland,Czechochowa,Olenka nr 76,,,€10.00,274,50.811381,19.090938,http://ourbumble.com/city-contrast-culture-colour-lodz/,Campsite,15 pp plus 10 for mh.
Poland,Czerwinsk,,,,€0.00,89,52.395942,20.309107,http://ourbumble.com/day-deliberation-polish-puncture/,Mixed Parking,"Church and hostel car park. Free and no restrictions, so can park overnight. Fresh water tap as you walk under the archway in to church courtyard."
Poland,Lowicz,,,,€0.00,79,52.108509,19.937699,http://ourbumble.com/day-deliberation-polish-puncture/,Mixed Parking,
Poland,Ryn,,,,€0.00,102,53.937371,21.545451,http://ourbumble.com/gunshot-unexpected-organ-concert/,Mixed Parking,Dirt / Grass area beside the marina.
Poland,Krakow,Camping Adam,,,€20.00,208,50.046655,19.902845,http://ourbumble.com/heatwave-kebabs-krakow/,Campsite,50plz per camper plus 26 pp
Poland,Suwalki,Osir Eurocamping,Village/Town/City,"Fresh WaterGrey WaterBlack WaterTrashToiletsShowersElectricWi-Fi",€0.00,160,54.093062,22.916078,http://ourbumble.com/poland-ooops-polish-dosh/,Campsite,Lovely big pitches and excellent shower favilites
Poland,Ketrzyn,Wolfs lair,,"Fresh WaterGrey WaterTrashToiletsShowersElectric",€0.00,145,54.079406,21.495294,http://ourbumble.com/search-tom-cruise-wolfs-lair/,Mixed Parking,Wolves lair parking overnight included in parking price 20pln. Inc free electric and water
Poland,,,,,€0.00,88,54.052846,21.454238,http://ourbumble.com/,Mixed Parking,Lay by set back from the main road in a wooded area.
Poland,,,,,€0.00,144,51.897911,19.599877,http://ourbumble.com/,Mixed Parking,Spare land beside a lake
Portugal,Lagos,,Harbour,Trash,€0.00,,37.108354,-8.673462,http://ourbumble.com/alvor-to-praia-do-amado/,Mixed Parking,Street parking with no restrictions right next to marina and harbour at the bottom of the foot bridge which takes you straight in to old town.
Portugal,Corsino,,Countryside,,€0.00,,37.223614,-8.726125,http://ourbumble.com/alvor-to-praia-do-amado/,Wild,"Good wild camping spot on edge of the reservoir,  very peaceful with the exception of odd cow bell."
Portugal,Aljezur,,Village/Town/City,"ToiletsTrash",€0.00,,37.316459,-8.803403,http://ourbumble.com/alvor-to-praia-do-amado/,Rest Area & Services,"Big parking space with no facilities, located at bottom of old town and right next to river. Good view up to the castle and also looking back towards the surrounding countryside."
Portugal,Praia da Amoreira,,Beach,,€0.00,,37.347234,-8.849436,http://ourbumble.com/alvor-to-praia-do-amado/,Wild,Lay-by with excellent views over headland.  minutes walk from beach and town. Coastal road just right of road 1003.
Portugal,Arrifana,,Beach,Trash,€0.00,,37.295854,-8.866135,http://ourbumble.com/alvor-to-praia-do-amado/,Layby,Superb view on to little cove and very popular with surfers.
Portugal,Praia da Borderia,,Beach,Trash,€0.00,,37.196815,-8.907912,http://ourbumble.com/alvor-to-praia-do-amado/,Wild,Loads of little lay-by to pull over and admire the sweeping coastline. sand dunes and coastal paths to beach.
Portugal,Praia da Borderia,,Beach,Trash,€0.00,,37.193111,-8.902835,http://ourbumble.com/alvor-to-praia-do-amado/,Mixed Parking,Large sandy car park with great access to beach.  good for fishing and surfing. Sand dunes protect the car park from Atlantic winds.
Portugal,Praia do Borderia,,Beach,,€0.00,,37.193775,-8.913857,http://ourbumble.com/alvor-to-praia-do-amado/,Wild,Dirt track all around the headland. Nice and quiet and great vantage point for a good sunset.
Portugal,Praia do Amado,,Beach,Trash,€0.00,,37.168794,-8.900748,http://ourbumble.com/alvor-to-praia-do-amado/,Mixed Parking,Car park right in the beach with rolling hills behind. Massive beach cove which is popular with surfers in summer.  There are two car parks - low one and high one. The high one indicates campers allowed and to be fair it is were most of the campers park but don't park here as police often move people off. The lower car park seems to be the one that is ok to camp on. As we passed the higher car park we noticed the 'no Motorhome' sign had been sprayed blue by someone hence why people thought it was ok to park on.  
Portugal,Ilha do Tavira,,Beach,Trash,€0.00,13,37.120536,-7.620421,http://ourbumble.com/cacela-velha-to-praia-de-marinah/,Wild,Spare land at the edge of Tavira overlooking the Ilha de Tavira. There are a couple of good places to tuck in and around the castle ruins and also little lay-bys for parking on the lane itself. Great for bird watchers and strolls along beach. Small Marina a few meters away.
Portugal,Santo Luzia,,Beach,,€0.00,25,37.097587,-7.667702,http://ourbumble.com/cacela-velha-to-praia-de-marinah/,Wild,"Spare land that runs behind the football ground.  Hard, sandy ground. Slightly elevated position, so good views over estuary.  Few minutes walk in to the town where you will find plenty cafes and bars.  if you need water then you need to go to fisherman huts, it's cost €2 to fill up. The huts are located at beginning of town, near the bridge and the wafer point is right on the corner."
Portugal,Fuseta,,Beach,Trash,€0.00,-20,37.052335,-7.743795,http://ourbumble.com/cacela-velha-to-praia-de-marinah/,Mixed Parking,"Car park which tolerates Motorhomes.  No parking 2 Sunday and 1 Thursday in each month, local market.  there is a campsite behind the car park.  Car park right on wetlands and beach area."
Portugal,Praia do Trafel,,Beach,"Fresh WaterTrashShowers",€0.00,-5,37.05635,-8.077197,http://ourbumble.com/cacela-velha-to-praia-de-marinah/,Wild,"Quiet, secluded beach location.  Access is down a country lane that can be slightly bumpy in sections.  Right at the end of the lane is a restaurant with private car parking.  You can park on the lane or in one of the lay-bys. Beautiful stretch of beach with little lagoon just behind the dunes, ideal for bird watching.  Fresh water and showers at the end of the boardwalk.  "
Portugal,Praia do Almargen,,Beach,,€0.00,11,37.057993,-8.081296,http://ourbumble.com/cacela-velha-to-praia-de-marinah/,Wild,A hidden gem! Right on the beach with stunning views out to the ocean.  Hard sandy surface but no facilities.  Lidl and services not far along main road.  Small wooden area to the rear and watering hold with birds and wildlife to west.  
Portugal,Praia dos Pescadores,Amacào de Pera,Beach,"Fresh WaterGrey WaterBlack WaterTrashToilets",€1.50,37,37.100735,-8.354334,http://ourbumble.com/cacela-velha-to-praia-de-marinah/,Rest Area & Services,"A large car park with basic service facilities.  Hard, flat surface and very clean.  Right in the beach and next to few restaurants.  Very quiet in the evening.Unfortunately we didn't get any pictures because in the morning we decided to leave.  Lots of talk about people receiving fines from the police, as it is only a car park and no overnight camping permitted.  With all the discussions and people taking random photos we decided to not chance it and move on.  "
Portugal,Praia dos Marinah,,Beach,,€0.00,63,37.092533,-8.412282,http://ourbumble.com/cacela-velha-to-praia-de-marinah/,Wild,"One of the most beautiful wild camping spots we've discovered on the Algarve.  As you approach you can see small sandy car park to the left, which you can park on or alternative, take a left down the sandy track and pick you own secluded spot with little garden.  "
Portugal,Faro,Isla de Faro,Beach,"Fresh WaterGrey WaterBlack WaterTrashToilets",€0.00,22,37.008409,-7.994846,http://ourbumble.com/faro-to-barragem-do-arade/,Mixed Parking,"Site located directly in front of the bridge connecting to Faro, mixed parking but campers are allowed, the sanitation services are to the right of the car park next to the toilets. The pretty beach is very long but narrow and will get very busy in the summer time. Nice views also looking back toward the mainland. Parking areas are also located to the left of the car park after approx 500m."
Portugal,Alte,,Village/Town/City,Trash,€0.00,180,37.233721,-8.181328,http://ourbumble.com/faro-to-barragem-do-arade/,Mixed Parking,"Parking next to the cemetery, great views out into the surrounding hills. There is also parking on the other side of the village next to the bus parking area and toilets."
Portugal,Silves,Barragem do Arade,Beach,,€0.00,64,37.239282,-8.377741,http://ourbumble.com/faro-to-barragem-do-arade/,Mixed Parking,Site is located about 10km East of Silves. Level parking area next to the reservoir wall and a derelict restaurant. No facilities but a great vantage point overlooking the Barragem do Arade. Lots of scenic walks in the area too.
Portugal,Silves,,Village/Town/City,"Grey WaterBlack WaterTrash",€0.00,18,37.186407,-8.445396,http://ourbumble.com/faro-to-barragem-do-arade/,Rest Area & Services,"This aire is next to the river and very close to the centre and supermarkets, the fresh water is located near the children's play area and is a drinking fountain, waste is emptied into a grid near the entrance building."
Portugal,Faro,Isla de Faro,Beach,Trash,€0.00,29,37.015272,-7.985455,http://ourbumble.com/faro-to-barragem-do-arade/,Mixed Parking,"Site located directly at the end of Faro airports runway, gravelled parking area, peaceful as the planes are not too loud. Looks out towards Isla de Faro. Water and toilet facilities on the other side of the bridge. Good for plane spotting."
Portugal,Messines,,Village/Town/City,"Fresh WaterTrashGrey WaterBlack WaterToilets",€0.00,120,37.254407,-8.284498,http://ourbumble.com/faro-to-silves/,Rest Area & Services,"Free Aire in middle of the town. The town aire only has spaces for four Motorhomes but there is a massive car park right behind the aire with plenty parking space, hard gravel and grass surface.  Fresh, grey and black water facility and toilet block which are maintained by the town on a daily basis.  Supermarket, bank and shops within walking distance."
Portugal,Alcoutim,,Village/Town/City,"Fresh WaterGrey WaterBlack WaterTrashElectric",€0.00,,37.475051,-7.474507,http://ourbumble.com/mertola-to-cacela-velha/,Rest Area & Services,"Small aire with room for about 8 vans overlooking the town.  Gravel, level surface with simple service area.  Nice and quiet with the exception of local chickens and cockerels."
Portugal,Alcoutim,,Lake,Trash,€0.00,,37.4226,-7.454664,http://ourbumble.com/mertola-to-cacela-velha/,Mixed Parking,Small stone layby with couple of picnic tables with fantastic view point over Gardiana river.  No facilities but only 5 minutes drive to Alcoutim village and aire.  Great place if you like quiet locations with options for fishing on the river.
Portugal,Alcaria,Almada d'Ouro,Countryside,"Fresh WaterGrey WaterBlack WaterTrashToiletsElectricWi-Fi",€0.00,,37.331742,-7.468484,http://ourbumble.com/mertola-to-cacela-velha/,Rest Area & Services,"Small Aire set right in the middle of the countryside.  Elevated position, so beautiful 360 views across Portugal, river Gardiana and Spanish boarder.  Nice flat, hard ground with picnic area to the front and rear.  Bar and cafe area with reasonable prices.  Price includes water and wifi.  Electricity €2.50 per night.  Washing service €5. Discount offered for longer stay ranging from €12.50 for 3 days to €75 for 30 days.  Very clean and friendly."
Portugal,Vila Real da San Antonio,,Harbour,"Fresh WaterGrey WaterBlack WaterTrashWi-FiElectric",€0.00,,37.198856,-7.415261,http://ourbumble.com/mertola-to-cacela-velha/,Rest Area & Services,"Very large aire with barrier system.  Hard surface of broken bricks and stones, which is good for drainage but makes the overall aire quite dirty.  All usual facilities and right on harbour front.  Lidl within walking distance."
Portugal,Castro Marim,,Village/Town/City,Trash,€0.00,,37.219073,-7.444579,http://ourbumble.com/mertola-to-cacela-velha/,Mixed Parking,"Gravel surface and pretty level.  Locate off main road, so can be quite noisy.  Good view of castle and fort and within easy walking distance of town bars and cafes."
Portugal,Castro Marim,,Village/Town/City,"Fresh WaterGrey WaterBlack WaterTrash",€0.00,,37.219778,-7.444109,http://ourbumble.com/mertola-to-cacela-velha/,Rest Area & Services,"Free aire with Euro water and waste (token required). Tokens can be purchased from all main garages and some local stores. Small site for around 20 campers and located on the main street into Casto Marim, it's within easy access of the own and castle.  Parking also in the main town across the street with a gravel surface also pretty level. Good view of castle and fort and within easy walking distance of town bars and cafes."
Portugal,Praia Santo do Antonio,,Beach,Trash,€0.00,,37.174789,-7.421406,http://ourbumble.com/mertola-to-cacela-velha/,Mixed Parking,Gravek surface car park in between beach and forest.  Nice and quiet.
Portugal,Praia do Cabeço,,Beach,,€0.00,,37.177433,-7.471708,http://ourbumble.com/mertola-to-cacela-velha/,Wild,"Flat, sandy, open land at side of the beach a few metes away from small beach / restaurant car park. Two restaurants open during season and located straight on the beach.  Small mini market 500m back towards main road."
Portugal,Retur,,Beach,,€0.00,,37.177908,-7.470048,http://ourbumble.com/mertola-to-cacela-velha/,Wild,Flat concrete base good for a dozen wild camping spots.  Stones throw to beach and very quiet.
Portugal,Cacela Velha,,Beach,,€0.00,,37.158345,-7.546018,http://ourbumble.com/mertola-to-cacela-velha/,Wild,Open land on elevated but slightly sloping ground. Car park at top and grass slop at the side. Wonderful sea view and nice little village.
Portugal,Monte Gordo,,Beach,Rubbish,€0.00,,37.18,-7.44633,http://ourbumble.com/monte-gordo-to-alvor/,Mixed Parking,"Spare land/Car park located right next to the beach, Very close to a campsite and behind a hotel so probably only useful out of season. Bar/restaurant close by and water via a shower faucet about 200m away."
Portugal,Praia da Cabeço,,Beach,Rubbish,€0.00,,37.17679,-7.47169,http://ourbumble.com/monte-gordo-to-alvor/,Mixed Parking,"Spare land/Car park located right next to the beach, Bar/restaurant close by but may not allow overnight camping in peak periods."
Portugal,Manta Rota,Aire de Manta Rota,Beach,"Fresh WaterGrey WaterBlack WaterRubbish",€0.00,,37.16444,-7.52145,http://ourbumble.com/monte-gordo-to-alvor/,Rest Area & Services,"Great location straight on to the beach. Secure aire with barrier entry and exit which is manned 8 til 8 by friendly staff. €4.50 for 24 hours which includes water and wifi. Electric extra €2.50 for 12 hours.  Aire holds around 80 vans and only one water empty/fill up station, so can get quite busy in peak times.  Few bars and restaurants nearby and local retailers drive through the Aire every morning selling bread, fruit, vegetables etc. even a laundry service every afternoon. Good value for your money."
Portugal,Fabrica,,Harbour,Rubbish,€0.00,,37.154053,-7.55335,http://ourbumble.com/monte-gordo-to-alvor/,Mixed Parking,Public car park with great views over the harbour. no signs to say you can or can't stay overnight.
Portugal,Armona,,Beach,Rubbish,€0.00,,37.03679,-7.79759,http://ourbumble.com/monte-gordo-to-alvor/,Layby,Waste land at the side of marshland looking out to Ilha de Armona. Good place to stopover but watch out for the Mosquitos which bred in the stagnant waters.
Portugal,Faro,,Village/Town/City,,€0.00,,37.01185,-7.93165,http://ourbumble.com/monte-gordo-to-alvor/,Mixed Parking,Good central car park for visiting the town. No facilities and no charge.
Portugal,Praia de Arrifes,,Beach,,€0.00,,37.07953,-8.27778,http://ourbumble.com/monte-gordo-to-alvor/,Layby,"Brilliant free parking spot right on head land over looking Albufeira Coast. Access to beach via little coastal path. Restaurant open during peak times.  Access road can sometimes be a little bumpy, so need to drive with caution."
Portugal,Fonte Santa,,Village/Town/City,"Fresh WaterGrey WaterBlack Water",€0.00,36,37.073311,-8.076964,http://ourbumble.com/monte-gordo-to-alvor/,Rest Area & Services,Massive Aire not far from the beach. €3 for 12 until 12 noon parking. €2 for electric and €2 for 100 litres of fresh water.
Portugal,Alvor,,Beach,"Fresh WaterGrey WaterBlack WaterTrashElectric",€0.00,,37.124937,-8.594052,http://ourbumble.com/monte-gordo-to-alvor/,Rest Area & Services,Massive spare land on the edge of town. Sandstone under foot so may be a bit boggy if wet. Costs are 4.50€ per night and electricity is 2.5€. Water services are quite good with sinks also available. Located on the edge of the beach. The village and the marina only 5 minutes walk. Great place to watch parachute landings at sunset.
Portugal,Benagil,,Beach,,€0.00,55,37.086619,-8.429868,http://ourbumble.com/praia-do-marinah-to-loule/,Wild,"As you approach Benagil, keep to the road west of the ravine.  You drive through some small villas and at the end of the Tarmac road continue on the dirt track.  Within a few meters you are at your wild camping spot with fantastic views out to the ocean and over the sandy cove.  Lots of little bushes and trees to nestle yourself in and find level ground and shelter from sea breeze.  "
Portugal,Praia do Carvelho,,Beach,Trash,€0.00,38,37.086615,-8.431338,http://ourbumble.com/praia-do-marinah-to-loule/,Wild,"As you pass through the village of Benagil continue on the dirt track and head down in to the cove on the west side.  The cove at Carvelho is very pretty.  You can park a Motorhome on the sandy path but you will need to get the chocs out but it is well worth it.  The cove has a few caves and unusual walk ways with plenty coastal gardens to meander through.  "
Portugal,Loule,,Village/Town/City,Trash,€0.00,179,37.133095,-8.017202,http://ourbumble.com/praia-do-marinah-to-loule/,Mixed Parking,"Loule football ground with hard, flat but dusty surface.  "
Portugal,Odemira,Praia da Zambujeira,Beach,Trash,€0.00,,37.52216,-8.786157,http://ourbumble.com/praia-do-rocha-to-setubal/,Mixed Parking,Quiet little car park right next to the beach. The town is just a couple of minutes walk away.
Portugal,Vila Nova do Milafontes,,Beach,"Fresh WaterTrashToilets",€0.00,,37.722948,-8.787284,http://ourbumble.com/praia-do-rocha-to-setubal/,Mixed Parking,Parking permitted on roadside with excellent views over the estuary and headland.  Public toilet facilities available in season. Water tap available year round.
Portugal,Porto Covo,Aire Porto Covo,Beach,"Fresh WaterGrey WaterBlack WaterTrash",€0.00,,37.851898,-8.788968,http://ourbumble.com/praia-do-rocha-to-setubal/,Rest Area & Services,Free aire just behind the main square. Space for around 10 vans on the aire with option for parking at the side in layby. Harbour and beach only minutes away.
Portugal,Porto Covo,,Beach,Trash,€0.00,,37.897277,-8.797691,http://ourbumble.com/praia-do-rocha-to-setubal/,Mixed Parking,Car park on headland which is well sheltered due to sand dunes. Pretty views out to sea and looking back towards Porto Covo and its coastline.  Couple of cafes and surf school open in high season.
Portugal,Costa de Santo Andre,Praia Santo Andre,Beach,"Fresh WaterTrashToilets",€0.00,,38.114303,-8.797353,http://ourbumble.com/praia-do-rocha-to-setubal/,Mixed Parking,Fresh water tap just outside beach cafe. Lovely long beach and great for sunset.
Portugal,Costa da Santo Andre,Lago de Santo Andrė,Lake,"Fresh WaterToiletsTrash",€0.00,,38.113293,-8.796662,http://ourbumble.com/praia-do-rocha-to-setubal/,Mixed Parking,Small sandy car park at side of the lagoon. Couple of cafe bars to the rear.  Toilet and water tap a few metres away.  Great for bird lovers.
Portugal,Setubal,,Harbour,"TrashFresh Water",€0.00,,38.518433,-8.903322,http://ourbumble.com/praia-do-rocha-to-setubal/,Mixed Parking,"Harbourside Carpark about 1.5km from the main sites of the town on the edge of the commercial harbour. Space for about 20 vans but it is mixed parking. Large park area to the rear. Fresh water tap inside the fish market, can be noisy in the morning due to the fishermen."
Portugal,Lisbon ,Doca de Alcantara,Harbour,Trash,€0.00,,38.70246,-9.169003,http://ourbumble.com/praia-do-rocha-to-setubal/,Mixed Parking,"Lisbon is a difficult place to find overnight parking. There are a couple of parking points that tolerate campers but they are too far out of Lisbon to make visiting easy and enjoyable. This car park is right on the marina, quiet location and only 2 km to centre. It is right in front of office buildings, so very quiet at weekends but you still have people walking around the marina, so not isolated. The police station is just around the corner. Difficult to get to just make sure you follow for the cruise terminal and stick to the port roads and not the main road in to Lisbon."
Portugal,Lisbon,Belem,Harbour,,€0.00,,38.695606,-9.197748,http://ourbumble.com/setubal-to-sao-pedro/,Mixed Parking,"spare ground with signs showing no caravans but the police tolerate Motorhomes parking here, as long as you don't stay too long.  Can get very crowded at weekends with cars trying to park in any space possible. Location is good, right on waterfront, close to Belem attractions and access to foot bridge to other side of town.  "
Portugal,Sao Pedro de Sintra,Sociedade União 1. de Dezembro,Village/Town/City,"Fresh WaterGrey WaterBlack WaterTrashToilets",€0.00,,38.787908,-9.375617,http://ourbumble.com/setubal-to-sao-pedro/,Rest Area & Services,Football ground just 1.5 km to main sites. Simple facilities and a little over priced for Portugal but quiet as long as there is no football match or training sessions.
Portugal,"Sao Pedro, Sintra",,Village/Town/City,Toilets,€0.00,,38.790421,-9.379722,http://ourbumble.com/setubal-to-sao-pedro/,Mixed Parking,"Small car park off main road but right in middle of Sao Pedro.  No parking fees and no restrictions.  Sintra streets are very narrow and windy, so easier to park at Sao Pedro and walk 1km to Sintra."
Portugal,Santa Susana,,Village/Town/City,"Fresh WaterGrey WaterBlack Water",€0.00,,38.91822,-9.383283,http://ourbumble.com/sintra-to-mertola/,Rest Area & Services,"Level parking area with services, nothing special."
Portugal,Mafra,,Village/Town/City,,€0.00,,38.93592,-9.326291,http://ourbumble.com/sintra-to-mertola/,Mixed Parking,"Car park located right next to the Palace, parking meter charges apply but you repeatedly get a free hour by pressing the machines button. Army facility at the rear of the Palace so security shouldn't be a problem. They even said it was ok to park overnight."
Portugal,Venas Nova,,Village/Town/City,Trash,€0.00,,38.677667,-8.455439,http://ourbumble.com/sintra-to-mertola/,Mixed Parking,Small town car park. Free parking with no restrictions. Right outside military museum and church.  
Portugal,Guadalupe,Oz Almendres,Countryside,,€0.00,,38.559673,-8.061567,http://ourbumble.com/sintra-to-mertola/,Wild,At the entrance to the stone circles there is a small piece of land where you can park overnight. The single track dirt road from Guadalupe to Oz Almendres is fine for campers as long as it is not raining. Be mindful of large pot holes.
Portugal,Evora,,Village/Town/City,Trash,€0.00,,38.576612,-7.915481,http://ourbumble.com/sintra-to-mertola/,Mixed Parking,"Car park at the edge of the towns outer wall and 2 minutes to the centre, Cobbled, hard surface and mainly flat. Please note, there is no longer an aire at Evora. Space also available if you drive under the aqueduct and park on the other side."
Portugal,Beja,,Village/Town/City,Trash,€0.00,,38.021981,-7.874011,http://ourbumble.com/sintra-to-mertola/,Mixed Parking,"Public car park with a hard, slightly sloping surface. No parking restrictions and only 1km to Beja's sights. The road at the side of the cemetery is lined with wild herbs."
Portugal,Mertola,,Village/Town/City,"Fresh WaterTrashShowersToilets",€0.00,,37.643007,-7.659537,http://ourbumble.com/sintra-to-mertola/,Mixed Parking,"Car park just as you enter the town.  First few spaces are for buses but if you drive along you will find long spaces with no buses signs, which are ideal for Motorhomes.  Just off the roundabout there are public showers and toilets.  Shops, bars and cafes on either side of the road."
Portugal,Mertola ,,Village/Town/City,"Fresh WaterTrash",€0.00,,37.638005,-7.661814,http://ourbumble.com/sintra-to-mertola/,Mixed Parking,"Free car park right at the edge of the river.  The view up to the castle and Mèrtola is stunning especially at sunrise.  Within walking distance of the town but it is quite a steep climb.  Good hard surface which is nice and level.  Fresh water tap at the far side, right at the bottom of the walk way.  Good spot for watching birds, ducks and storks."
Portugal,Vila do Bispo,,Village/Town/City,"Fresh WaterTrash",€0.00,,37.083895,-8.913806,http://ourbumble.com/vila-do-bispo-to-praia-da-rocha/,Wild,Spare land behind the Mercado. Great for topping up with free fresh water and good place for exploring the town of Bispo. Tradition style washing area also in the town with lots of taps available.
Portugal,Vila Do Bispo,Water tap,,,€0.00,,37.088547,-8.912613,http://ourbumble.com/vila-do-bispo-to-praia-da-rocha/,Service Only,Water tap at the back of the Mercado and also at the municipal washing area.
Portugal,Vila Do Bispo,Praia da Cordoama,Beach,,€0.00,,37.108824,-8.935918,http://ourbumble.com/vila-do-bispo-to-praia-da-rocha/,Mixed Parking,"Nice spot with a large car park at the beach side, also small broken ground area to one side, this site would also offer some shade in the afternoon and evening because of the surrounding hills. There is also a restaurant on the beach."
Portugal,Vila Do Bispo,Praia do Castelejo,Beach,"TrashFresh WaterToilets",€0.00,,37.099454,-8.944346,http://ourbumble.com/vila-do-bispo-to-praia-da-rocha/,Mixed Parking,"Small amount of park beside the beach, no facilities but a very nice spot, restaurant on beach. Parking option also 100m up the hill for a few vans."
Portugal,Capo do Vincente,Praia de Belicha,Beach,Trash,€0.00,,37.026764,-8.963164,http://ourbumble.com/vila-do-bispo-to-praia-da-rocha/,Wild,Open land with no facilities but good view of lighthouse and fort. 
Portugal,Capo do Vincente,Capo do Vincente lighthouse,Harbour,Trash,€0.00,,37.023428,-8.99488,http://ourbumble.com/vila-do-bispo-to-praia-da-rocha/,Mixed Parking,Loose stone car park at the entrance to St Vincente lighthouse...most northerly point of mainland Europe and once considered the end of the world.
Portugal,Sagres,Fortaleza,Harbour,Trash,€0.00,,37.0039,-8.9451,http://ourbumble.com/vila-do-bispo-to-praia-da-rocha/,Mixed Parking,Loose stone car park at the entrance to St Vincente lighthouse...most northerly point of mainland Europe and once considered the end of the world.
Portugal,Vila Do Bispo,Forest and Picnic area,Countryside,Trash,€0.00,,37.091457,-8.930839,http://ourbumble.com/vila-do-bispo-to-praia-da-rocha/,Wild,"Great area in between Vila Do Bispo and the beaches with BBQ facilities and a children's play area, greats walks to the surrounding areas."
Portugal,Cerro do Homem,Praia da Ingrina,Beach,,€0.00,,37.04667,-8.878463,http://ourbumble.com/vila-do-bispo-to-praia-da-rocha/,Wild,"Lovely small cove/beach area, parking on one side and a restaurant on the other with parking out of season. No facilities but great views."
Portugal,Praia de Figueira,Praia de Figueira,Beach,Trash,€0.00,,37.060595,-8.840341,http://ourbumble.com/vila-do-bispo-to-praia-da-rocha/,Wild,Road to this beach is full of pot holes and small piece of land which is occupied by long term campers. Very good beach cove though.
Portugal,Praia das Cabanas,Praia do Cabanas,Beach,Trash,€0.00,,37.06692,-8.5958,http://ourbumble.com/vila-do-bispo-to-praia-da-rocha/,Mixed Parking,Car park half of which belongs to a beach restaurant. Nice beach cove and good for 1 night.
Portugal,Porto do Mas,        ,Countryside,Trash,€0.00,15,37.08679,-8.68814,http://ourbumble.com/vila-do-bispo-to-praia-da-rocha/,Wild,Spare land beside a hotel and apartment complexes right next to the beach. Local restaurants also very close by.
Portugal,Praia do Rocha,Parque Emcomar,Harbour,"Fresh WaterGrey WaterBlack WaterTrashToiletsShowersElectricWi-Fi",€0.00,,37.120341,-8.530563,http://ourbumble.com/vila-do-bispo-to-praia-da-rocha/,Rest Area & Services,"Good Aire with mixed, tarmac, stone and loose ground pitches. Very close to the beach and only 2.7km from Portemao. Fresh water is €2.00 for 110 litres, electric is €2.00 for 24hrs. Free shower and toilet block. Free wifi but very slow. Onsite bar/cafe with very reasonably priced drinks and food."
Portugal,Sao Marco de Serra,,Countryside,,€0.00,,37.314462,-8.378088,http://ourbumble.com/,Wild,Little bit of land beside the main road in between two cracking cork trees and overlooking the hills and valleys.
Romania,Sighisora,,,,€1.00,344,46.220096,24.795385,http://ourbumble.com/birth-vlad-impaler-sighisoara/,Mixed Parking,Free car park
Romania,Sighisoara,Campsite,Village/Town/City,"Fresh WaterBlack WaterGrey WaterTrashToiletsShowersElectric",€18.00,357,46.223037,24.796466,http://ourbumble.com/birth-vlad-impaler-sighisoara/,Campsite,Campsite
Romania,Oradea,,,,€0.00,138,47.051803,21.966627,http://ourbumble.com/fast-forward-through-hungary-romanian-monastery/,Wild,Car park opposite the a fantastic Monastery 
Romania,Oradea,,,,€0.00,117,47.053833,21.932984,http://ourbumble.com/stunning-romanian-cities-turda-gorge/,Mixed Parking,On street parking right in town centre. Free at weekends.  €1 per hour during the week.
Romania,Turda,Turda Gorge,,Fresh Water,€0.00,417,46.561061,23.691443,http://ourbumble.com/stunning-romanian-cities-turda-gorge/,Wild,"Grassy area idea for visiting the gorge, fresh water is available at the spring."
Romania,Sidiu,,,,€0.00,420,45.797662,24.147241,http://ourbumble.com/stunning-romanian-city-sibiu/,Mixed Parking,"On street parking but free, very close to centre."
Romania,Carta,Camping De Oude Wilg,,,,,45.784401,24.567482,http://ourbumble.com/taste-romanian-life-village-carta/,,Great Dutch campsite close to the base of the Transfagarasan Highway.
Romania,Arefu,Transfagarasen,Village/Town/City,,€1.00,603,45.345504,24.634644,http://ourbumble.com/top-gear-drive-transfagarasan-highway/,Mixed Parking,Good spot for visiting Vlads castle. Grassy area next to stream.
Romania,,,,,€0.00,532,46.890863,22.888913,http://ourbumble.com/,Mixed Parking,Large parking area near a restaurant.
Slovakia,Zehra,,,"Fresh WaterTrashToilets",€0.00,567,48.978922,20.791723,http://ourbumble.com/gypsy-villages-hop-hungary/,Mixed Parking & Services,Small village parking area idea for visiting Zehra's church. Toilets and fresh water
Slovakia,Watsonaova,,,,€0.00,280,48.755733,21.194962,http://ourbumble.com/gypsy-villages-hop-hungary/,Wild,Gravel parking area.
Slovakia,Spisske,Spis Castle,,,€0.00,572,48.998548,20.771153,http://ourbumble.com/medieval-villages-boostbuttock-spis-castle/,Mixed Parking,Castle car park with nice views over the coutryside
Slovakia,Tatranska Lomnica,,,,€0.00,906,49.187728,20.292559,http://ourbumble.com/shooting-stars-welcome-slovakia/,Mixed Parking,Parking area next to road with access to walks in the area.
Slovakia,Tatranska Lomnica,,,,€0.00,843,49.166985,20.283657,http://ourbumble.com/shooting-stars-welcome-slovakia/,Mixed Parking,Parking behind restaurant.
Slovakia,Tatranska Lomnica,,,,€0.00,908,49.167595,20.270331,http://ourbumble.com/tatras-mountain-picnic-hike/,Mixed Parking,Car park to cable car / walk. Parking fee free all day when we stayed in September 2016
Slovakia,Tatranska Lomnica,Eurocamp,,,€0.00,787,49.158116,20.310591,http://ourbumble.com/tatras-mountain-picnic-hike/,Campsite,"Didn't stop but looks spacious and clean, large grassy areas."
Slovakia,,,,,€0.00,650,49.082495,20.427178,http://ourbumble.com/tatras-mountain-picnic-hike/,Mixed Parking,Thermal park. Spa and pools
Slovenia,Skoflje,,Countryside,,€0.00,392,45.653934,14.01213,http://ourbumble.com/trieste-to-lake-jansa/,Mixed Parking,Small Cemetary carpark which is near the caves.  Great views down the hill and valley towards Skoflje.  No services but excellent place for protection against windy weather.
Slovenia,Matavun,,Countryside,"TrashToilets",€0.00,409,45.662621,13.988333,http://ourbumble.com/trieste-to-lake-jansa/,Mixed Parking,Park Skocjanske Caves.  Parking during the day but motorhomes restricted overnight.  Two tiered carpark plus large park for coaches. 
Slovenia,Logatec,,Village/Town/City,,€0.00,475,45.914464,14.22838,http://ourbumble.com/trieste-to-lake-jansa/,Wild,Small loose gravel parking space in centre of village and opposite cemetery. 
Slovenia,Brezovica,,Countryside,"Fresh WaterTrash",€0.00,329,46.023626,14.406842,http://ourbumble.com/trieste-to-lake-jansa/,Mixed Parking,"Nice level car park just off the main road, quiet and clean. Water available from in front on the cematary."
Slovenia,Ljubljana,,Village/Town/City,Trash,€0.00,292,46.039668,14.478232,http://ourbumble.com/trieste-to-lake-jansa/,Mixed Parking,Large retail car park.  Flat and tarmac and off main road.  3km in to city centre. Quiet at night
Slovenia,Skofje Loka,,Countryside,,€0.00,370,46.167812,14.325507,http://ourbumble.com/trieste-to-lake-jansa/,Mixed Parking,"Beautiful location right in the middle of the countryside with stunning views over to the hills.  Parking at side of church, which is flat and clean under foot."
Slovenia,Skofje Loka,,Village/Town/City,Trash,€0.25,348,46.170285,14.302199,http://ourbumble.com/trieste-to-lake-jansa/,Mixed Parking,"Sports centre car park just 5 minutes to village and old town.  0.25 per hour between 7 and 17.  Tarmac and flat just off main road.  Busy car park, so not idea for sleeping."
Slovenia,Lake Bled,,Countryside,,€0.00,503,46.371803,14.114306,http://ourbumble.com/trieste-to-lake-jansa/,Mixed Parking,Car park in middle of green fields and countryside.  One section tarmac and one loose gravel.  Quiet and 1km to town centre. It will become apayed car park eventually.
Slovenia,Lake Bled,,Lake,Fresh Water,€0.00,510,46.373658,14.105936,http://ourbumble.com/trieste-to-lake-jansa/,Mixed Parking,"Small parking bay at church cemetery, fresh water tap.  "
Slovenia,Bohinjske Bistrica,,Lake,Trash,€0.00,508,46.273471,13.935363,http://ourbumble.com/trieste-to-lake-jansa/,Mixed Parking,Small parking space at side of picnic area.  No restrictions on overnight parking.
Slovenia,Tolmin,Kamp Siber,Countryside,"Fresh WaterGrey WaterBlack WaterTrashToiletsShowersElectricWi-Fi",€7.63,,46.180313,13.738178,http://ourbumble.com/trieste-to-lake-jansa/,Campsite,"Small family run campsite.  Simple and basic but friendly.  Turned up unexpected but no issue.  No one else on campsite due to time of year and to be fair, we not sure they would normally be open.  Very quite at night€7 per person plus €0.63 tax per day. No charge for camper. Electricity €2 per day."
Slovenia,Zaga,,Village/Town/City,Trash,€0.00,362,46.316276,13.494364,http://ourbumble.com/trieste-to-lake-jansa/,Mixed Parking,Hotel and adventure car park.  Overlooks river and Mountains. 
Slovenia,Bovek,,Countryside,"Fresh WaterGrey WaterBlack WaterTrashElectric",€3.00,443,46.332994,13.539361,http://ourbumble.com/trieste-to-lake-jansa/,Rest Area & Services,"Great aire in stunning location.  €3 for 24 hours parking or if you want electric €3, €6, €9, €12 for 1, 12, 24 or 36 hours.  Flat, tarmac and off main road"
Slovenia,Jansa Lake,,Lake,,€0.00,825,46.475623,13.783062,http://ourbumble.com/trieste-to-lake-jansa/,Mixed Parking,"Parking area next to the lake, stunning views."
Spain,Busquistar,,Countryside,,€0.00,1288,36.933645,-3.283436,http://ourbumble.com/capileira-to-malaga/,Wild,Middle of the valleys with great 360 views.  Only a couple of km to Trevelez.  Loose gravel but level.  no services
Spain,Motril,,Beach,,€0.00,2,36.72288,-3.532447,http://ourbumble.com/capileira-to-malaga/,Mixed Parking,"Flat, level tarmac just tucked behind Marina and straight on the beach.  Beach is dark shingle."
Spain,Nerja,,Beach,,€0.00,46,36.75048,-3.882799,http://ourbumble.com/capileira-to-malaga/,Wild,"Wild camping in any resort is challenging but this spot is quiet good.  Only a small piece of land, so not loads of traffic but only 1.5km to beach and stroll away from Lidl and petrol station.  Hard, flat, level surface."
Spain,Nerja,Playa Playaza,Beach,,€0.00,4,36.742996,-3.889626,http://ourbumble.com/capileira-to-malaga/,Mixed Parking,"Municipal parking that does not allow tents.  Big piece of land straight on to the beach with local shops only a few minutes walk.  Gravel and grass ground but flat. Water available from near by beach showers and tap, also toilets a few hundred meters away. There are three areas to park off the beach but access to the road is height restricted at the west end but not the east side."
Spain,Sorbas,,Village/Town/City,,€0.00,396,37.099333,-2.12677,http://ourbumble.com/capileira-to-malaga/,Mixed Parking,"Tarmac car park on the edge of town, local amenities within 2 minutes, swimming pool and sports facilities also 2 minutes away. Pleasant simple town."
Spain,El Cabo de Gata,,Beach,"TrashFresh Water",€0.00,34,36.779776,-2.241499,http://ourbumble.com/capileira-to-malaga/,Mixed Parking,Lose gravel surface on the end of town but right on the beach.  A few small trees that provide a little shade from the sun but mainly open ground.  The town has a few bars and cafes on the promenade and a few small corner shops selling basic amenities.  
Spain,Antequera,,Village/Town/City,"Fresh WaterGrey WaterBlack Water",€0.00,506,37.021484,-4.571867,http://ourbumble.com/el-chorro-to-capileira/,Rest Area & Services,"Great aire just on the outskirts of town.  Flat, level, Tarmac.  Room for 6 Motorhomes but if full, plenty parking on the side streets.  Free water and facilities."
Spain,El Torcal,,Countryside,,€0.00,1208,36.953479,-4.544121,http://ourbumble.com/el-chorro-to-capileira/,Mixed Parking,"Flat, concrete car park at the entrance to the national park visitors centre.  Clean but no facilities.  Excellent for birds, weasel, fox and dear.  The centre do not mind overnight, if out of season.  "
Spain,El Torcal ,,Countryside,,€0.00,1196,36.957596,-4.537471,http://ourbumble.com/el-chorro-to-capileira/,Mixed Parking,"An alternative to parking on the visitors centre is a small lay by overlooking the road up to the pinnacle.  Hard, flat surface but will need chocks to get level.  Plenty room for Motorhome and very quiet.  No services."
Spain,El Torcal,,Countryside,,€0.00,948,36.962816,-4.513871,http://ourbumble.com/el-chorro-to-capileira/,Mixed Parking,Hard surface car park at bottom of El Torcal with plenty of parking spaces for Motorhomes.
Spain,Vińuela,,Lake,"Fresh WaterGrey WaterTrash",€0.00,236,36.863809,-4.157841,http://ourbumble.com/el-chorro-to-capileira/,Mixed Parking,"Recreational area at the side of the lake.  Hard, loose stoney surface.  Dusty and dry.  Recreational area includes bbq, benches, water and mini golf as well as walks around lake with plenty wild flowers.  "
Spain,Arenas del Rey,,Lake,"Fresh WaterTrash",€0.00,846,36.995891,-3.884742,http://ourbumble.com/el-chorro-to-capileira/,Mixed Parking,Good spot for stopping on route to Granada.  The lakeside is dotted with lots of uneven and loose gravel roads.  Plenty places to pull in and hide amongst trees with stunning views over lake.  
Spain,Granada,,Village/Town/City,,€0.00,679,37.14678,-3.601022,http://ourbumble.com/el-chorro-to-capileira/,Wild,"Hard, flat surface and located on outskirts of town.  4 kilometres to Alhambra and 2 kilometres to centre. Alhambra is very expensive to park with no overnight parking and street parking is very limited."
Spain,Lecrin,,Lake,,€0.00,489,36.91537,-3.53767,http://ourbumble.com/el-chorro-to-capileira/,Mixed Parking,Parking on edge of lake.  Nice walks around dam with Sierra Nevada in background.  
Spain,Lanjaron,,Village/Town/City,"Fresh WaterGrey WaterTrash",€0.00,638,36.912806,-3.476539,http://ourbumble.com/el-chorro-to-capileira/,Wild,"Loose gravel surface but flat.  At the side of a small recreational area with about 3 picnic tables.  Located on the hillside adjacent to the town of Lanjaron, so excellent views of the village and cultivated terraces.  if you look up through the valleys you can see snow peaks tucked just behind the hillside.  Natural spring water about 1 km back in village."
Spain,Orgiva,,Countryside,,€0.00,670,36.914654,-3.428358,http://ourbumble.com/el-chorro-to-capileira/,Wild,"Small lay by on hillside above Orgiva.  Hard, gravel surface but on slight incline.  Excellent view over Orgiva and surrounding mountains.  Little cave provides interesting walk.  "
Spain,Pampaneira,,Village/Town/City,,€0.00,1048,36.939426,-3.361783,http://ourbumble.com/el-chorro-to-capileira/,Mixed Parking,"Flat, clean, Tarmac car park for coaches.  To the side is a car park for cars but gets busy during weekend.  Small mercado in town and fresh running water tap."
Spain,Capileira,,Village/Town/City,"Fresh WaterGrey WaterTrash",€0.00,1469,36.960795,-3.35608,http://ourbumble.com/el-chorro-to-capileira/,Mixed Parking,"Street parking on the far side of the village.  Flat tarmac but the road is on a gentle slope, so you will need chocs out to level the Motorhome.  The town has ample drinking water and there are plenty grids to empty grey water.  Lovely views both up to the snow capped peak and then down to the valley floor.  "
Spain,El Rocio,,Village/Town/City,,€0.00,10,37.131777,-6.489838,http://ourbumble.com/el-rochio-to-sevilla/,Mixed Parking,"The town of El Rocío sits on the edge of the Donana National Park and from here you can see many variety of birds including flamingo and heron.  The town doesn't have any Tarmac, so all roads are sand/ dust.  Plenty free parking space around the town with good views of the wet land.  in town there are lots of fresh water taps and public toilets.  "
Spain,Jerez de la Frontera,,Village/Town/City,,€0.00,42,36.695046,-6.138447,http://ourbumble.com/el-rochio-to-sevilla/,Mixed Parking,Large free Carpark that tolerates overnight camping.  Flat concert surface.  Located next to primary school and block of apartments but within easy walking distance of the town.  Just around the corner is the Jerez horse training academy.
Spain,Aguilas,Playa Higuérica,Beach,Trash,€0.00,20,37.380072,-1.627492,http://ourbumble.com/garrucha-to-los-narejos/,Wild,Undeveloped beach cove.  Hard sand surface set in little coastal gardens with larger parking area towards the beach.  Small cafe and petrol station a few miles down the road with toilet and water facilities. 
Spain,Aguilas,,Harbour,Trash,€0.00,2,37.402633,-1.578751,http://ourbumble.com/garrucha-to-los-narejos/,Mixed Parking,"Carpark on the harbour side, very clean and right next to all the towns amenities, nice town with nice beaches. Also Carpark on the opposite side of the harbour."
Spain,Bolnuevo,Playa Bolnuevo,Beach,,€0.00,14,37.563851,-1.313374,http://ourbumble.com/garrucha-to-los-narejos/,Mixed Parking,"Large, flat car park facing the breach.  Just off the main road that runs though the town.  The town has number of supermarkets and services, all within easy walking distance.  "
Spain,Murcia,,Beach,,€0.00,15,37.576852,-1.224615,http://ourbumble.com/garrucha-to-los-narejos/,Wild,"This stretch of coastline enforces no camping, so difficult to wild camp.  This spare land is the best we spot we could find.  Loose gravel surface but flat and over looking the surfers cove."
Spain,Azohia,Playa de la Azohia,Beach,"Fresh WaterTrashToiletsShowers",€0.00,17,37.553088,-1.170183,http://ourbumble.com/garrucha-to-los-narejos/,Mixed Parking,Small level car park right on the beach front.  To the left a small pebble beach and pier where the fishermen bring in their daily catch.  A small stroll to the right and you will find many sandy coves.  There are portaloos and beach showers dotted along this stretch of beach.  Small spar and selection of bars.
Spain,Cartagena,Casa Cortina ,Beach,Trash,€0.00,11,37.581903,-0.975551,http://ourbumble.com/garrucha-to-los-narejos/,Mixed Parking,Excellent location just outside Cartagena.  Tarmac car park with level places overlooking beautiful bay and fort.  
Spain,Los Narejos,,Beach,,€0.00,8,37.752372,-0.842534,http://ourbumble.com/garrucha-to-los-narejos/,Mixed Parking,On street parking.  Tarmac and flat.  Straight on to beach with restaurants and shops close by.
Spain,Estepar,,Village/Town/City,"RubbishShops",€0.00,,42.275905,-3.899362,http://ourbumble.com/here-we-go-trip-2015/,Mixed Parking,"Just of the main road with lots of parking throughout the town, popular with truckers. Very quiet at night apart from the dogs barking in the area."
Spain,Salamanca,,Village/Town/City,,€0.00,,40.95757,-5.67615,http://ourbumble.com/here-we-go-trip-2015/,Mixed Parking,"Parking in front of Lidl on a large car park, parking also available on the left hand side of the bridge facing you. Both sites close to main road so a little noisy throughout the day but not at night,"
Spain,Caceres,,Village/Town/City,"Fresh WaterGrey WaterBlack WaterRubbish",€0.00,,39.48066,-6.36656,http://ourbumble.com/here-we-go-trip-2015/,Mixed Parking,"Aire located next to a school but very close to the old town centre, the site holds about 15 motorhomes providing full services. Very quite location."
Spain,San Sebastián,,Beach,Rubbish,€0.00,,43.32502,-1.9926,http://ourbumble.com/here-we-go-trip-2015/,Mixed Parking,"Car park located on the sea front, no facilities but a great view, Parking charges apply."
Spain,Zafra,,Village/Town/City,Rubbish,€0.00,,38.42672,-6.41037,http://ourbumble.com/here-we-go-trip-2015/,Mixed Parking,"Large parking area next to local police station, 5 minutes into the town centre but no facilities."
Spain,Seville,,Village/Town/City,,€0.00,,37.39578,-6.00711,http://ourbumble.com/here-we-go-trip-2015/,Mixed Parking,"Car park located on the other side of the river to the city centre but only a 20 minute walk to the centre and sights. Tolerates overnight camping and reasonably quiet.  Car park holds many vehicles but soon fills up especially during weekends and holidays.  Car park is free but often several entrepreneurial attendants seeking the odd euro for guiding you in to a parking space."
Spain,Elche ,,Village/Town/City,,€0.00,68,38.261655,-0.6857,http://ourbumble.com/los-narejos-to-villafames/,Wild,Concrete and lose stone surface at the side of the road.  
Spain,Alicante,,Beach,,€0.00,2,38.351596,-0.467742,http://ourbumble.com/los-narejos-to-villafames/,Wild,Excellent location for both the beach and visiting the city.  Access is awkward as you need to turn under the fly over but this is height restricted.  Go passed the fly over and take the right turn at the no entry point.  
Spain,Penya Redona,,Countryside,,€0.00,995,38.604581,-0.485264,http://ourbumble.com/los-narejos-to-villafames/,Wild,"Flat, lose gravel,surface with spectacular views over Alicante and Benidorm and mountains."
Spain,Sumat de la Valldigna,,Village/Town/City,"Fresh WaterTrash",€0.00,46,39.04395,-0.308186,http://ourbumble.com/los-narejos-to-villafames/,Mixed Parking,Small Tarmac car park in front of the monastir.  Plenty waste bins and fresh water tap in children's park opposite. Also fresh water and waste water dumping at the back of the town
Spain,Les Gavines ,,Beach,"ShowersTrash",€0.00,5,39.362843,-0.317843,http://ourbumble.com/los-narejos-to-villafames/,Mixed Parking,Loose gravel car park straight behind the sand dunes and beach.  This stretch of land offers loads of parking with immediate access to the beach.
Spain,Valencia ,,Village/Town/City,,€0.00,15,39.454481,-0.380353,http://ourbumble.com/los-narejos-to-villafames/,Mixed Parking,Flat spare land in residential area just outside Valencia.  Ideal for stopping during the day to visit the city.  
Spain,Playa del Puig,,Beach,"Fresh WaterTrashShowersToilets",€0.00,8,39.596477,-0.269366,http://ourbumble.com/los-narejos-to-villafames/,Wild,"Large stone parking straight on to the beach.  The beach is only narrow but very clean.  All along this stretch are wave breakers, which actually create mini bays.  The water on the beach is fresh and thenoccasional portaloo.  The beach has life guards.  "
Spain,Puig,,Village/Town/City,,€0.00,2,39.58776,-0.30294,http://ourbumble.com/los-narejos-to-villafames/,Mixed Parking,Large car park next to Santa Maria monastery.  Locate facilities across the road and couple of supermarkets within walking distance. 
Spain,Villafames ,,Village/Town/City,,€0.00,299,40.113939,-0.052567,http://ourbumble.com/los-narejos-to-villafames/,Wild,Loose gravel spare land surrounded by trees and bushes.  Just off Main Street and within walking distance of the caste.  
Spain,Torrox Costa,,Beach,"Fresh WaterTrashShowers",€0.00,3,36.732471,-3.972751,http://ourbumble.com/malaga-to-torrox-costa/,Mixed Parking,Quite side street just a stones throw away from the beach.  very clean and level and the police don't seem to mind you staying here.  Supermarket just around the corner.  Plenty bars and restaurants with a wide variety of cuisines.  
Spain,La Fabriquilla,,Beach,"Fresh WaterTrash",€0.00,6,36.738057,-2.207641,http://ourbumble.com/nijar-to-garrucha/,Wild,"Perfect beach spot.  You can either park right at the side of the road overlooking the beach or on a small concrete car park.  The little village has a bar servicing food.  The road leads to a dead end, so no traffic and. dry quiet.  Beautiful white sand and turquoise waters.   "
Spain,San Jose,Playa Genoveses,Beach,Trash,€0.00,-1,36.745609,-2.124842,http://ourbumble.com/nijar-to-garrucha/,Mixed Parking,From San Jose take the road West.  The Tarmac turns in to a dusty and unsaved road for about 2km.  At the fork in the road take the left turn and big car park.
Spain,San Jose,,Beach,Trash,€0.00,10,36.76781,-2.109768,http://ourbumble.com/nijar-to-garrucha/,Mixed Parking,On street car parking but very quiet and next to small supermarket.  Flat and clean and easy access to the beach.  Lots of options for street parking in and around San Jose but there are a few no camper signs too.  
Spain,Isletta del Moro,,Beach,"TrashFresh WaterShowers",€0.00,8,36.815573,-2.051062,http://ourbumble.com/nijar-to-garrucha/,Wild,"Excellent beach location situated on little headland overlooking two bays.  Fresh water and washing facilities in village.  Showers on the beach.  Hard, flat surface and very quiet.  "
Spain,Las Negras,,Beach,,€0.00,7,36.878773,-2.005943,http://ourbumble.com/nijar-to-garrucha/,Mixed Parking,"Flat, level concrete street parking.  Facing apartment block.  On the edge of the small village within easy walking distance of the beach and this town centre.  No immediate facilities."
Spain,Agua Amarga,,Beach,,€0.00,3,36.93941,-1.936379,http://ourbumble.com/nijar-to-garrucha/,Mixed Parking,"Large beach car park with solid, flat surface.  No facilities but the beach does offer showers and toilets during season.  "
Spain,Carboneras,,Village/Town/City,,€0.00,16,36.996361,-1.898693,http://ourbumble.com/nijar-to-garrucha/,Mixed Parking,"Tarmac road in the town centre near supermarket, quite road surrounded by residential properties. 2 minutes to beach and all other amenities."
Spain,Carboneras,,Village/Town/City,,€0.00,53,36.954625,-1.904553,http://ourbumble.com/nijar-to-garrucha/,Mixed Parking,"Stone parking area about 5km out of town, access to the nudist beach is 300m away, quite and views over the hills and cement factory."
Spain,Carboneras,,Village/Town/City,,€0.00,15,36.946973,-1.915214,http://ourbumble.com/nijar-to-garrucha/,Mixed Parking,"Beach front parking on small stones, right on the beach, cement factory at the rear and industrial port to one side, popular with locals but very quiet at night. Town centre about 3km away with all amenities."
Spain,Garrucha ,,Beach,"Fresh WaterTrash",€0.00,5,37.231452,-1.796745,http://ourbumble.com/nijar-to-garrucha/,Wild,Beach parking which is flat and reasonably level.  Straight on to the beach and no issues to park.  A couple of beach restaurants within walking distance.  
Spain,San Fernando,,Village/Town/City,,€0.00,13,36.450874,-6.216384,http://ourbumble.com/sevilla-to-jerex-de-la-frontera/,Mixed Parking,if you struggle to park in Cadiz then San Fernando is only a couple of kilometres across the water and much quieter with plenty of options for street parking.  
Spain,Alcalá de Los Gazules,,Village/Town/City,,€0.00,120,36.460944,-5.728478,http://ourbumble.com/sevilla-to-jerex-de-la-frontera/,Wild,Small car park with broken surface.  Hillside town with not much to see but local supermarket and petrol station.  Good views over surrounding area.  
Spain,Cortes de la Frontera,,Countryside,,€0.00,450,36.559134,-5.601282,http://ourbumble.com/sevilla-to-jerex-de-la-frontera/,Wild,Nice little spot to stay over if you like peace and quiet in the hills.  fantastic views over surrounding countryside with little cafe at side of the road.  
Spain,Ubrique,,Village/Town/City,,€0.00,349,36.677045,-5.4506,http://ourbumble.com/sevilla-to-jerex-de-la-frontera/,Mixed Parking,"Parking space just outside of the town with great views over the hills and town.  Ubrique is hilly with small street, so difficult for Motorhomes to access, so keeping to outer road is safer.  This parking spot  is on a main road, flat, clean and very quiet in the evening but busy during the day.  "
Spain,Benoacaz,,Countryside,"Fresh WaterGrey WaterTrash",€0.00,764,36.703645,-5.423457,http://ourbumble.com/sevilla-to-jerex-de-la-frontera/,Wild,"In the middle of Grazalema national park this little village looks nothing on first appearances but it quite charming.  Lovely calm atmosphere with fantastic views of the national park and surrounding mountains.   Parking in layby, which is flat concrete with wonderful views.  Fresh water tap, grid and bin nearby."
Spain,Villaluenga del Rosario,,Village/Town/City,"Fresh WaterTrash",€0.00,848,36.696314,-5.383085,http://ourbumble.com/sevilla-to-jerex-de-la-frontera/,Mixed Parking,"Large Carpark with great views over the hills.  Flat, concrete surface.  Small but quaint town with local cheese factory."
Spain,Zahara,,Village/Town/City,,€0.00,461,36.841862,-5.39184,http://ourbumble.com/sevilla-to-jerex-de-la-frontera/,Wild,Concrete lay-by on quiet tree lined road.  Great views overlooking the lake and surrounding countryside.  No immediate facilities. 
Spain,Fanlo ,,Countryside,,€0.00,1080,42.566439,0.030701,http://ourbumble.com/torla-to-llavorsi/,Wild,Little lay by with big views.  Great for lunch or dinner but not necessarily for an overnight stop. 
Spain,Ainsa,,Village/Town/City,Trash,€0.00,539,42.414842,0.143828,http://ourbumble.com/torla-to-llavorsi/,Mixed Parking,Large car park at the side of the river.  Look up to the town and surrounding mountain peaks.  Nice and flat car park with great views 
Spain,Ainsa ,,Village/Town/City,"Fresh WaterGrey WaterTrash",€0.00,541,42.416061,0.141299,http://ourbumble.com/torla-to-llavorsi/,Mixed Parking,Small loose gravel car park just off main road and at side of river.  Fresh water from tap in playground just behind the car park.  Grid for grey waste.  Good views up to town and very quiet.  
Spain,Guera National Park,Sierra y canines de Guara,Countryside,Trash,€0.00,671,42.21974,0.045281,http://ourbumble.com/torla-to-llavorsi/,Mixed Parking,Loose gravel car park in middle of Guera national park.  Excellent views  down valley and rock face.
Spain,Alquezar ,,Village/Town/City,,€0.00,685,42.16952,0.021411,http://ourbumble.com/torla-to-llavorsi/,Mixed Parking,Tiered level car park on the outskirts of the village. 
Spain,Capella,,Village/Town/City,"Fresh WaterGrey WaterBlack WaterTrashToilets",€0.00,474,42.194808,0.397808,http://ourbumble.com/torla-to-llavorsi/,Mixed Parking,"Small car park next to bridge and river.  Little park area with fresh water, toilets, BBQ facility, picnic area etc.  great little spot."
Spain,Rods de Isabena,,Village/Town/City,Trash,€0.00,837,42.291757,0.529622,http://ourbumble.com/torla-to-llavorsi/,Mixed Parking,Small Tarmac car park with excellent views over surrounding countryside.  Short stroll and you are in the small village.
Spain,Montanuy,,Countryside,,€0.00,1499,42.605375,0.766432,http://ourbumble.com/torla-to-llavorsi/,Wild,Loose gravel stop at the base of the lake and looking up in to mountains.   
Spain,Naut Aran,,Village/Town/City,"Fresh WaterToilets",€0.00,1256,42.70585,0.902001,http://ourbumble.com/torla-to-llavorsi/,Mixed Parking,Large car park at the side of the river permitting Motorhomes for up to 3 days.
Spain,Naut Aran,,,,€0.00,1883,42.673135,0.966154,http://ourbumble.com/torla-to-llavorsi/,Wild,Small lay by with stunning views. Ideal spot for a break half way up a snaking road.
Spain,La Vale de Gerber,,Countryside,Trash,€0.00,1927,42.653238,1.00017,http://ourbumble.com/torla-to-llavorsi/,Mixed Parking,Large loose gravel car park at the base of a ski lift.  No restrictions.
Spain,La Guingueta d'Aneu,,Village/Town/City,Trash,€0.00,935,42.592781,1.132583,http://ourbumble.com/torla-to-llavorsi/,Wild,Small parking spot right beside the lake.  Good for day parking but restricted for Motorhomes between 8 and 8
Spain,Llavorsi,,Countryside,,€0.00,827,42.516871,1.195725,http://ourbumble.com/torla-to-llavorsi/,Wild,Patch of land at the side of the river and under trees.  Surrounded by hills and glorious countryside.  Perfect for a quite camping spot.  
Spain,La Seu d'Urgell,,Village/Town/City,"Fresh WaterGrey WaterBlack WaterTrashElectric",€0.00,684,42.359173,1.465392,http://ourbumble.com/torla-to-llavorsi/,Rest Area & Services,"Small aire right in the middle of the historical centre and next door to the parador.  Original space for around a 20 vans but now opened up to a large section which caters for around 100 vehicles.  Simple but well organised facility.  2 euros for 100 litres fresh water, free non drinking water. Electricity 1 euro for 2 hours with about 10 spaces."
Spain,Playa da Salobreña,,Beach,,€0.00,10,36.731107,-3.58556,http://ourbumble.com/torrox-costa-to-nijar/,Wild,"Clean and tidy little lay-by at the side of residential area.  The beach is located at the end of the street with toilet and water facilities to the right, although facilities only open at peak times.   "
Spain,Salobreña,,Beach,Trash,€0.00,-9,36.740739,-3.595389,http://ourbumble.com/torrox-costa-to-nijar/,Wild,"Small piece of land right on the beach and just 5 minutes out of the town.   Tucked nicely in the middle of the farm land and allotments, so no passing traffic.  Solid, gravel surface with room for a dozen Motorhomes."
Spain,El Ejido,,Beach,,€0.00,9,36.710714,-2.819899,http://ourbumble.com/torrox-costa-to-nijar/,Mixed Parking,"No Motorhome parking permitted in any of the beach car parks.  This parking spot is in the middle of the villas, so nice and quiet and flat.  Good for one night."
Spain,Tabernas,Mini Holywood,Village/Town/City,,€0.00,299,37.020451,-2.433642,http://ourbumble.com/torrox-costa-to-nijar/,Mixed Parking,"Mini Hollywood car park, which is free to coaches and campers.  Flat, clean and right at the side of the entrance to the theme park.  "
Spain,Tabernas,,Village/Town/City,"TrashFresh Water",€0.00,390,37.048413,-2.395125,http://ourbumble.com/torrox-costa-to-nijar/,Mixed Parking,"Public car park at side of sports arena.  Flat, clean Tarmac with no restrictions or notices.   Two fresh water taps and rubbish bins."
Spain,Nijar,,Village/Town/City,Trash,€0.00,352,36.96607,-2.208328,http://ourbumble.com/torrox-costa-to-nijar/,Mixed Parking,Lose gravel car park with flat points at the top of the Nejar town.  Municipal parking with no restrictions.  Great views up to the natural park behind. 
Spain,Cabanes,,Countryside,,€0.00,282,40.157949,0.088612,http://ourbumble.com/villafumes-to-zaragoza/,Wild,Excellent countryside views but no services
Spain,Benicarlo ,,Beach,"ShowersTrash",€0.00,-6,40.417328,0.435833,http://ourbumble.com/villafumes-to-zaragoza/,Wild,"Flat, loose gravel spare land right on the beach.  Easy walk to harbour and in to town.  "
Spain,Morelia ,,Countryside,,€0.00,934,40.597945,-0.051174,http://ourbumble.com/villafumes-to-zaragoza/,Wild,Small layby just outside Morelia with fantastic views of countryside and the town of morella. 
Spain,Morella,,Countryside,"Fresh WaterBlack WaterGrey WaterTrash",€0.00,973,40.623894,-0.091715,http://ourbumble.com/villafumes-to-zaragoza/,Rest Area & Services,"Free aire in excellent location.  Just outside Morella so you get a fantastic view of the village and castle.  Flat surface with little garden separators. Good, effective services."
Spain,Morella ,,Village/Town/City,"TrashToilets",€0.00,974,40.623171,-0.101259,http://ourbumble.com/villafumes-to-zaragoza/,Mixed Parking,Morella is blessed with both an aire and village car park.  If you drive up to the castle wall there is ample parking which is flat and fantastic views around countryside and up to the castle.  Just before you enter the castle wall there are public toilets.
Spain,Valderrobres ,,Village/Town/City,"Fresh WaterGrey WaterBlack WaterTrash",€0.00,488,40.873924,0.155804,http://ourbumble.com/villafumes-to-zaragoza/,Rest Area & Services,Free aire.  Loose gravel and flat.  Clean service areA with easy access.  Right on the river bank and at the beginning of the old town.
Spain,Alcaniz,,Village/Town/City,Trash,€0.00,303,41.053237,-0.127422,http://ourbumble.com/villafumes-to-zaragoza/,Mixed Parking,On street parking with no restrictions.  This small side street is quiet and just at the beginning of the town.  Probably about 10 minutes walk via Mercadona lift (takes you up the side of the rock to old town).
Spain,Belchite ,,Village/Town/City,Trash,€0.00,447,41.303621,-0.751698,http://ourbumble.com/villafumes-to-zaragoza/,Mixed Parking,Small car park in between old and new town.  Flat concrete and quiet. 
Spain,Zaragoza,,Village/Town/City,"TrashFresh Water",€0.00,206,41.656727,-0.863597,http://ourbumble.com/villafumes-to-zaragoza/,Mixed Parking,On street parking inquirer residential area with main attractions close by.  Lidl just around the corner and child play area with fresh water tap and rubbish bin.
Spain,Montejaque,,Village/Town/City,,€0.00,678,36.736363,-5.250036,http://ourbumble.com/zahara-to-el-chorro/,Mixed Parking,"Small village close to gorge and damn.  Great place limestone formation.  Parking limited to the main street due to access and steep roads.  Flat, level, Tarmac and relatively quiet. "
Spain,Ronda,,Village/Town/City,,€0.00,746,36.751154,-5.16781,http://ourbumble.com/zahara-to-el-chorro/,Mixed Parking,"Flat, hard surface car park located next to apartment block and one block away from Aldi.  Off the Main Street, so quiet in the evenings.  Ronda has lots of on vertical road parking but very few horizontal, so whilst not a great view very practical and within easy walking distance of the twin and main sites. "
Spain,Setenil de las Bodegas,,Village/Town/City,,€0.00,548,36.862712,-5.17562,http://ourbumble.com/zahara-to-el-chorro/,Mixed Parking,Street parking at side of the river.  Flat and quiet with no parking restrictions.  Within easy walking distance of the town and main attractions.  
Spain,Carratraca,,Village/Town/City,Trash,€0.00,540,36.855861,-4.821177,http://ourbumble.com/zahara-to-el-chorro/,Mixed Parking,"Hard, flat surface overlooking hills, next to cemetery.  Good spot for visiting springs."
Spain,Alora,,Lake,,€0.00,202,36.907405,-4.760599,http://ourbumble.com/zahara-to-el-chorro/,Wild,"Uneven surface but relatively flat.  Located right on the river over looking El Chorro, a superb location.  "
Spain,Gurrea de Gallego,,Countryside,,€0.00,390,41.99443,-0.680803,http://ourbumble.com/zarragoza-to-torla/,Wild,Loose gravel piece of land in the middle of nowhere.  Great views over the surrounding countryside and ancient acquaduct  
Spain,Huesca,,Village/Town/City,"TrashToiletsFresh Water",€0.00,463,42.143518,-0.402508,http://ourbumble.com/zarragoza-to-torla/,Mixed Parking,Flat and quiet road side parking at the side of the park.  Fresh water and portable toilets just at the entrance.  Good place to stay if you're visiting the town and only 5 minutes walk.
Spain,Loarre,Castillo de Loarre,Countryside,"Fresh WaterTrashToilets",€0.00,1043,42.327939,-0.610597,http://ourbumble.com/zarragoza-to-torla/,Mixed Parking,Tarmac car park but need chocs to get level.  No charge for parking and no restrictions.  Fresh water and toilet facilities at the visitor centre.
Spain,Riglos,,Village/Town/City,Trash,€0.00,634,42.345179,-0.725923,http://ourbumble.com/zarragoza-to-torla/,Mixed Parking,Flat Tarmac car park with great view of the rocks.  Bar and swimming pool to the right
Spain,San Juan de la Pena,Monasterio de San Juan,Countryside,"Fresh WaterTrash",€0.00,1213,42.507278,-0.663426,http://ourbumble.com/zarragoza-to-torla/,Mixed Parking,Car park located in the wooded area near to the new monestary.  Good area for shade.  Fresh water and rubbish at the picnic area.  
Spain,San Juan de la Pena,,Village/Town/City,Trash,€0.00,781,42.524371,-0.673751,http://ourbumble.com/zarragoza-to-torla/,Mixed Parking,"On the road parking in the little village of San Juan.  On a slope, so need chocs to get level."
Spain,Jaca,,Village/Town/City,Trash,€0.00,816,42.565495,-0.565151,http://ourbumble.com/zarragoza-to-torla/,Mixed Parking,Flat Tarmac car park belonging to mercadona supermarket.  No parking restrictions and only a short walk to Jaca town.  Great views over valley and quiet.  
Spain,Olivan,,Countryside,Fresh Water,€0.00,861,42.583518,-0.322032,http://ourbumble.com/zarragoza-to-torla/,Wild,Loose gravel dirt track running alongside the mountain stream with excellent views of the surrounding hills.
Spain,Biecas,,Village/Town/City,Trash,€0.00,875,42.626228,-0.32174,http://ourbumble.com/zarragoza-to-torla/,Mixed Parking,"Large municipal car park with no restrictions except on Saturday for local market.  Flat, loose gravel surface."
Spain,Torla,,Countryside,"Fresh WaterGrey WaterTrashToilets",€0.00,987,42.623685,-0.111534,http://ourbumble.com/zarragoza-to-torla/,Mixed Parking,"Flat Tarmac car park.  It is the main car park and whilst it does say no sleeping in your vehicle, the police do not mind as long as you don't put out your Canary, chairs etc.  Be discrete and you are ok.  Free to park.  Park on the lower car park as better view of both the peak and the valley plus better breeze if visiting in night of summer.  "
Sweden,Tanum,,Countryside,Trash,€0.00,13,58.684091,11.394309,http://ourbumble.com/bronzed-out/,Mixed Parking,"Car park located at the bronze age museum and carvings. Two car parks - lower one gets busy but the upper is quieter and loose stone.No parking restrictions of charges."
Sweden,Kungalv,,Village/Town/City,"Fresh WaterGrey WaterTrashBlack WaterToilets",€0.00,11,57.863706,11.999834,http://ourbumble.com/flaming-hot-fridge/,Mixed Parking,"Nice quiet location next to the river and the canoe club. Parking as you enter is restricted on time during June and July. You can park near the waters edge except on Thursdays when they hold antique market.Loose gravel and stone.  The small wooden hut/shelter is where you empty black and grey waste and fill up with fresh water."
Sweden,Gothenburg,,Village/Town/City,,€0.00,16,57.648854,11.933819,http://ourbumble.com/halla-sweden/,Mixed Parking,"Large car park, which is located 7km out of the city. Good place to put your head down when just arrived ferry plus located next to LPG filling station."
Sweden,Stromstad,,Harbour,,€0.00,3,58.940858,11.167513,http://ourbumble.com/hei-norge/,Mixed Parking,Tarmac car park located on waters edge.  Parking from 9-18 and then free overnight.
Sweden,Lysekil,,Harbour,Trash,€0.00,-50,58.268883,11.424784,http://ourbumble.com/hundreds-of-pink-granite-islands/,Mixed Parking,"Great car park tucked in behind the rocks with excellent views over the sea. Small beach cove to the right, nice walks and town is just 5 minutes walk. Flat surface."
Sweden,Fjallbacka,,Village/Town/City,"ToiletsTrash",€0.00,1,58.599769,11.286537,http://ourbumble.com/ingrid-bergmans-retreat/,Mixed Parking,Flat level car park in centre of village. Access to toilet.
Sweden,Greebbestad,,Harbour,,€0.00,-3,58.697816,11.249835,http://ourbumble.com/ingrid-bergmans-retreat/,Wild,Large open space. Loose gravel with grass around the edge. No services
Switzerland,,,,,€0.00,231,46.184076,9.002866,http://ourbumble.com/how-to-zoom-through-5-countries-in-1-day/,Mixed Parking & Services,Motorway services with overnight parking permitted
Switzerland,,,,,€0.00,1628,46.463099,9.187784,http://ourbumble.com/how-to-zoom-through-5-countries-in-1-day/,Mixed Parking,
Switzerland,,,,,€0.00,1221,46.574159,9.41675,http://ourbumble.com/how-to-zoom-through-5-countries-in-1-day/,Mixed Parking & Services,
Switzerland,,,,,€0.00,451,47.13928,9.510316,http://ourbumble.com/how-to-zoom-through-5-countries-in-1-day/,Mixed Parking,Actually Rheinpark stadium in Lithenstein 
,,,,,€0.00,112,49.411726,8.677689,http://ourbumble.com/,Mixed Parking,"Parking area beside the river and near some houses beside the bridge, about 20 minutes walk to the castle."